Name,Address,City,State
Pryor,1202 Anita Drive,Montague,Montana
Bailee,13620 Skyview Road,Grandview,South Dakota
Rory,6869 Hutton Street,Cressey,Maryland
Annabel,12398 Quimby Lane,China,South Carolina
Leah,2791 Pearsall Avenue,North,Pennsylvania
Mortimer,6442 Briarcliff Drive,Promised Land,Vermont
Kelis,677 Hickory Street,Pollok,Ohio
Alexandra,10751 Jersey Avenue,Lozano,Wisconsin
Bailey,7882 S Trenton Avenue,Willing,Oregon
Rylie,11591 Freedom Way,Oakland,New Jersey
Marcellus,8736 Cottage Road,Marcy,North Dakota
Araceli,51 N Kingston Avenue,Smyrna,New Mexico
Claus,15280 Martin Luther King Jr Drive,North Augusta,Wisconsin
Merle,14549 N Fleet Street,Hamptonburgh,New Hampshire
Obed,10599 Dayton Street,Nuevo,South Dakota
Shirley,13578 N Saint Katherine Place,Hope,Florida
Claud,9721 Saint Abraham,Buffalo,Michigan
Alcide,9487 Field Place,Cherry Creek,Idaho
Bree,1801 Oriental Avenue,Marietta,Vermont
Kallie,7374 Amber Court,West Hollywood,Ohio
Henry,866 Brinkerhoff Street,Potosi,Pennsylvania
Jayda,4221 Belfry Park,Lometa,Kansas
Myah,7377 Weber Street,Saddle Rock,Nebraska
Thomas,11455 Winans Avenue,Barneveld,Vermont
Chesley,15279 King Palm,Savannah,Maryland
Less,13762 Congress Street,Lodi,Washington
Yadira,2834 Thelma Drive,Gonzales,Indiana
Caesar,11371 Glenn James,Palmyra,Indiana
Lorelai,13095 Gallini Drive,East Garden City,Michigan
Doss,4848 Norton Road,Arnold,North Dakota
Paul,14040 Mountain Lane,Roman Forest,Illinois
Kinsey,3723 Thompson Lane,Ontario,Kansas
Sandy,4423 Italy Terrace,Hewitt,New York
Arielle,6312 Dogwood Court,Eustace,Arizona
Leanna,5273 Edward Hart Drive,Glen Head,Maine
Ariella,10051 Paulmier Place,Gatesville,Delaware
Claude,12528 Cardigan,Del Rio,Vermont
Joana,2811 Montague Place,Myrtletown,Alaska
Matthew,15155 Pierce Avenue,Onion Creek,Connecticut
Gideon,8336 Tom Ulozas,Hillside Lake,North Dakota
Collins,630 Uibel Avenue,Lubbock,Nebraska
Kailey,13295 S Annapolis Avenue,Kentfield,Kansas
Sienna,11649 Wales Avenue,Covert,Louisiana
Algie,11401 Cynthia Farah,Coronita,New York
Avery,1921 Byron Avenue,Early,Georgia
Lucille,4032 Ravenwood Drive,Hickory,Florida
Sherman,12911 8th Street,Woodville,New Jersey
Hailey,13312 N Barlett Street,Maricopa,North Dakota
Madyson,4354 Pueblo Seguro,Cooperstown,Pennsylvania
Hamilton,14405 Memorial Avenue,Dearborn Heights,Virginia
Averi,14522 Tilton Road,North Pearsall,Massachusetts
Johnie,4983 Silver Lake,Artesia,Alabama
Gregorio,10747 Livingston Street,Muniz,New Hampshire
Arabella,8567 Caspian Avenue,Oroville,Hawaii
Albin,11195 Girard Place,Aptos,Nevada
Irwin,8938 Maxwell Street,West Valley,North Dakota
Ernest,309 Lake Huron,El Monte,New Hampshire
Isreal,7304 Sheffield Street,Loleta,Kentucky
Stephanie,2090 Columbia Avenue,North Wantagh,New York
Marshal,9473 Morris Avenue,Premont,Utah
Burrell,15431 Stone Street,Benicia,New Hampshire
Dominique,2702 Anndover Gardens,Donner,Louisiana
Shea,811 Fairway Drive,Highland Falls,Nebraska
Bennie,14956 Seabreeze Avenue,Tustin Foothills,Ohio
Elisabeth,9291 Robert Best Road,Lockett,Florida
Andre,1224 Carver Avenue,Lewisville,Tennessee
Allie,5898 N Congress Avenue,Lenexa,Oklahoma
Natalee,2372 Cindy Drive,Akron,West Virginia
Dexter,15449 Bonita Drive,Ontario,West Virginia
Quincy,13312 Parkview Drive,Sherwood Shores,Alabama
Elbert,11733 Lake Erie,Whitley Gardens,Texas
Harvey,563 Sanford Avenue,College Station,New Mexico
Yuliana,5706 Stockton Road,Gates,New Mexico
Orville,11860 Debra Way,Bonsall,Pennsylvania
Maritza,7613 Monroe Street,Charlotte,New York
Elle,11943 Joann Drive,Orange,Wisconsin
Agustus,14578 Hazard Place,Madera Acres,California
Basil,12061 Ridgeway Avenue,Highland Mills,South Dakota
Dayanara,13796 Larch Avenue,Bethel,Utah
Breanna,1312 N Ohio Avenue,Rushville,Washington
Casey,2814 Cheryl Ladd,Coarsegold,New Hampshire
Seymour,12802 Chisholm Pass,Eola-Paint Rock,Montana
June,1901 Creek Road,Bakersfield,Michigan
Kaydence,3217 Debra Way,Kerrville,Oregon
Leilani,3035 Perry Lane,Downers Grove,West Virginia
Vernon,13634 Donato Circle,Blodgett Mills,New Hampshire
Alondra,9151 Jacksonville Court,Stowell,Wyoming
Johanna,7863 Magnolia Avenue,Elsinore Valley,Virginia
Chasity,3653 Gem Avenue,Citrus Heights,South Carolina
Charity,4023 Boardwalk,Chateaugay,New York
Christina,9121 Police Plaza,Josephine,Arkansas
Horatio,1877 Abingdon Drive,Vienna,Georgia
Christine,14426 Tower Knoll,Port St. Lucie,Virginia
Aracely,13641 McWilliams Place,North Little Rock,Missouri
Emerson,11396 S Chelsea Avenue,Clermont,North Carolina
Precious,4232 Cardigan,Laurel,California
Kaia,2960 Carbon Place,Pitcairn,Kentucky
Salomon,11910 Arrambide,Cato,South Dakota
Auther,13749 Jeffries Landing Road,Wheatfield,Montana
Alivia,8538 Banner Run,Kiryas Joel,Alaska
Luna,4784 Madison Terrace,Darrouzett,Virginia
Tessa,12947 S Bartram Place,Richville,Florida
Clair,10285 Chelsea Avenue,Mullin-Priddy,Wyoming
Juliana,1251 David Bret,Tioga,Oklahoma
Cailyn,3019 Beacon Hill Drive,Kirby,Louisiana
Abe,3653 Gem Avenue,Hamptonburgh,North Dakota
Sara,7628 Young Avenue,Lower Lake,Missouri
Ralph,11808 Lupe Rivera,Winnie,North Dakota
Jerry,10780 Delaware Avenue,Mission,Alabama
Shyann,8049 Copper Ridge Circle,Felts Mills,Massachusetts
Chauncey,14536 Lake George,Bayville,West Virginia
Bruno,8546 Fernwood Avenue,Jasper,Maine
Kaleigh,14045 Bay Avenue,Union Vale,Wisconsin
Kamari,13561 Biscayne Boulevard,Janesville,New Jersey
Nyla,7461 S Jackson Avenue,Hoosick Falls,Utah
Dempsey,13990 Emerald Gate,Flagstaff,Indiana
Haywood,8655 Moessner Avenue,Doyle,Vermont
Phoenix,8731 Oak Hill Road,Serenada,North Carolina
Irving,5852 Seib Avenue,Palmview South,North Carolina
Gardner,6615 Muriel Pkwy,Marlin,Alaska
Edmond,7120 Country Club Drive,Monticello-Salem,Indiana
Felicity,2262 Plainfield Avenue,Halfmoon,Alaska
Jordan,5446 Denk Court,Huntington,North Dakota
Jack,3790 Greenwood Terrace,Lake Forest,South Carolina
Miranda,14040 Mountain Lane,Groves,Oregon
Gretchen,10688 Travers Street,Minetto,Mississippi
Aniya,8391 Golf Street,Cape Royale,Nevada
Renee,10647 Leland Place,Montalba-Tennessee,New Hampshire
Dylan,2147 Oakland Avenue,Orem,Washington
Marlie,13620 Skyview Road,Reliez Valley,Nevada
Mariam,12942 Fir Road,Hillcrest,Missouri
Marian,10492 Cezanne,Staatsburg,Alaska
Otha,3188 Nancy Drive,Independence,Washington
Cicero,3224 Coral Gate,Flanders,Indiana
Emanuel,12265 Hempson Avenue,Watertown,Colorado
Essie,15155 Pierce Avenue,Rockville,New Hampshire
Howell,8244 Ivins Avenue,Burlington,Massachusetts
Jayleen,4394 Pueblo Laguna,Kingstree,Colorado
Evelin,13667 Mike Hill,Binghamton,Rhode Island
Carlos,1544 Belmont Avenue,Stratford,Michigan
Lenard,5658 Virginia Terrace,Nunda,Florida
Ali,7033 Doremus Place,East Imperial,Nebraska
Alf,13667 Mike Hill,Lebec,New Hampshire
Maxwell,14641 Crimson Crest,Kelly Ridge,Texas
Madilyn,3029 Porter Avenue,Linn,Rhode Island
Lloyd,12512 Westervelt Place,St. Johnsville,South Dakota
Yazmin,9793 Tampa Terrace,Calverton,Virginia
Breana,15363 Verdi,Kirbyville,North Dakota
Tiana,5484 Del Rio,Cherryvale,Texas
Adelaide,1745 Heckman Drive,McCloud,Ohio
Irene,14985 Berkshire Road,Bangor,Vermont
Monroe,2658 Louis Place,Hewlett Bay Park,Tennessee
Gabriela,15183 Desert Quail,Roslyn,New Jersey
Marissa,14796 Bob Smith,Silverton,Nevada
Edith,3475 Lucille Drive,Boron,Georgia
Aleena,14228 Carlton Terrace,Neversink,Washington
Montgomery,11195 Girard Place,Stateburg,New Mexico
Jules,7187 Fred Carter,Boston,North Dakota
Laurence,6921 Bates Street,Afton,New Mexico
Ludwig,4646 Carlton Terrace,Barre,Arizona
Kendal,4746 Congress Street,Sierra Vista,Texas
Addison,11545 Bellows,St. Helena,Indiana
Abbott,14400 Pamrapo Avenue,Cairo,Maine
Harrie,6142 Foster Avenue,Compton,Colorado
Kelsey,2576 Acme Place,Hillsdale,Kentucky
Drew,10551 James Kelley,El Monte,South Dakota
Nataly,2258 Yale Avenue,Eola-Paint Rock,Tennessee
Harris,6928 Green Vine,Durham,Georgia
Evan,5316 Paseo Real,Hagerstown,New Mexico
Helen,10327 Dover Avenue,Wilson,Missouri
Judge,3912 Cannon Hill,Sebastian,Texas
Anaya,5618 Cuneo Place,Pacheco,New Mexico
Seth,12425 Woodrow Avenue,Ravenna,Florida
Macie,22 Abbott Avenue,Crescent City North,Rhode Island
Omar,4980 Clinton Avenue,Roosevelt,Wyoming
Dwight,934 Copper Gate,Williamston,Texas
Orley,13427 Trawood,Lumberton,Missouri
Mariela,13641 McWilliams Place,Kokomo,Washington
Melany,8001 Bradford Road,Lancaster,Arkansas
Joesph,12677 Dogwood Street,Spring Valley Village,Nebraska
India,9262 Country Club Boulevard,Strykersville,Iowa
Gustavus,13906 Bademann Place,La Palma,Pennsylvania
Wilber,1544 Gus Grissom,Brentwood,West Virginia
Shakira,6258 Cool Brook,Vina,Alaska
Elton,9499 Stone Gate,Wasco,Alabama
Destiny,5687 Brookdale Road,Summerhill,Wyoming
Elroy,12720 Essex Avenue,Anderson,Michigan
Duncan,5318 Garibay,Stevens Creek,Vermont
Eliza,6238 Monroe Street S,Newell,Michigan
Brittney,2563 Hunter Hill,Port Arthur,Kansas
Destini,15363 Verdi,Panorama Village,Virginia
Adolphus,14934 Tony Ponce,South Padre Island,Ohio
Hezekiah,14606 5th Avenue,Weir,Louisiana
Gustav,7849 Tower View,Theresa,Louisiana
Aspen,6340 Melrose Terrace,Bloomington,Kentucky
Aubrey,15092 Applegate Avenue,Crowley,Oregon
Gina,9715 Webb Street,Bardwell,Maryland
Jimena,9200 Clydesdale Road,Rosharon,New Mexico
Shyla,14659 Buttonwood Street,Hoosick Falls,New Mexico
Romeo,2745 Desert Rain,Palisades,Tennessee
William,10648 John Phelan,Elmont,Wyoming
Gustaf,11268 Sea View,Jamesport,West Virginia
Willian,4049 Stone Fence Road,Firebaugh,Ohio
Janessa,15035 Jacksonville Court,Galen,Rhode Island
Jocelyn,12303 Prospect Avenue,Rolling Hills,North Carolina
Ward,4399 Intrepid Court,Caroga,Michigan
Napoleon,978 Stanton Avenue,Rancho Santa Fe,Wisconsin
Godfrey,7015 Fairfax Road,Lewiston,West Virginia
Josiah,4043 Susan Place,North Ballston Spa,New Hampshire
Aisha,2332 Oak Place,Alba,Virginia
Corinne,7244 Tenaha,Armona,Wyoming
Rocio,11371 Glenn James,Rowland Heights,Hawaii
Percival,10364 Kerlyn Court,Fort Drum,Maryland
Melody,1799 Leopold Terrace,Johnsonville,Maine
Carleton,10677 N Laclede Place,Gilboa,Arizona
Curt,10867 Kline Court,Appleby,New Jersey
Naima,8615 Paseo Del Rey,Whitehouse,Kansas
Clinton,11288 Cricket Drive,East Palo Alto,Arkansas
Gianna,845 Monmouth Street,Rusk,New Hampshire
Chas,751 Yvonne Richardson,Grove City,Oregon
Delbert,3450 Hancock Avenue,Victoria,Utah
Destiney,424 S Morris Avenue,Colton,Hawaii
Adolf,1661 Clover Lane,Hadley,Kansas
Bridget,2556 Asbury Road,Allentown,Maryland
Delos,15499 Victor Lopez,Live Oak,Ohio
Halle,2620 Fairmount Terrace,Escondido,Florida
Krystal,12265 War Arrow,Seaside,Arizona
Jasmin,2405 Prior Street,Brandon,Virginia
Sonia,10078 Utilities Road,Abernathy,Indiana
Nevaeh,13029 Bayside Place,Valley Stream,Idaho
Caitlyn,7330 Standish Avenue,Deerpark,South Carolina
Press,8225 Beach Avenue,Hamden,Texas
Rebecca,15449 Bonita Drive,Butler,Idaho
Alexander,11785 Dylan Drive,Clarksville,Colorado
Micaela,12211 Ariff Avenue,Paradise,California
Aniyah,3318 Dick Lotz,Indian Lake,Wyoming
Ryleigh,9358 Giordana Avenue,Richgrove,New Hampshire
Kaylie,3680 Wythe Avenue,Pierrepont,New York
Humphrey,8977 Traveller Way,Garnet,North Carolina
Gene,13790 Christine Circle,Leander,Massachusetts
Kaylin,15357 William Street,Colorado Springs,North Carolina
Mireya,10842 Waverly Place,Olivehurst,Alabama
Natasha,321 Dandelion,Marion,Florida
Plummer,6962 Pueblo Seguro,North Myrtle Beach,Texas
Chloe,1819 Swan Drive,Salinas,Oklahoma
Salma,7968 Broadwell Avenue,Iowa City,Arizona
Gisselle,10099 North Avenue,Pinehurst,Hawaii
Craig,3816 S Kentucky Avenue,Baton Rouge,Alaska
Carroll,12132 Susan Edge,Meridian,New Hampshire
Allan,6114 Kingdom,Needville,Montana
Zoey,14638 Morris Pesin Drive,Martinez,Wyoming
Colin,4050 Maxwell Avenue,Coram,Michigan
Kylee,9337 Billy Casper,Cazenovia,South Dakota
Eileen,677 Wedgewood Drive,Hereford,Vermont
Jorja,5350 Firethorn Drive,Findlay,Massachusetts
Angelo,14308 Gene Sarazen,Sylvan Beach,Maryland
Milo,8571 Warrena Road,Cragsmoor,Connecticut
Angela,1376 Edgewood Pkwy,Montclair,North Carolina
Dennie,7299 Absecon Boulevard,Moore,Oregon
Rolland,10204 Tower View,Duncanville,Michigan
Holly,13382 Amstater,Cayuga,North Dakota
Williams,9860 Herbert Avenue,Bodega,South Carolina
Theo,8583 Romaine Avenue,Crystal Lake,Nebraska
Lizbeth,6308 Flip Wilson Court,North Edwards,Kansas
Isam,2725 Albany Terrace,Ransomville,Delaware
Christian,11401 Cynthia Farah,South Gate,Missouri
Britney,11364 Merseles Street,Asherton,Ohio
Linwood,15463 Jean Place,Lake Luzerne-Hadley,Nebraska
Albert,4899 Revere Avenue,Jonestown,Georgia
Myron,3275 Bethune Avenue,Birdsall,Nebraska
Estrella,12528 Cardigan,Anderson Mill,Michigan
Asa,371 Gautier Avenue,Perezville,Maine
Bartholomew,4143 Kent Drive,Farmersville,Michigan
Loren,481 S Myrtle Street,Sagerton,North Carolina
Jones,3351 Saint Thomas,Colton,South Carolina
Lynn,8401 Spinnaker Way,Olivehurst,Michigan
Dulce,1923 Cook Avenue,Santa Clara,Oklahoma
Frederick,14956 Seabreeze Avenue,Brookfield,North Carolina
Lucy,12331 Academy Road,Clymer,Louisiana
Ivan,3458 Crest Lane,Lincolndale,Kansas
Conrad,12590 Garden State Pkwy,Dallas,Wisconsin
Leland,1417 Westminister Avenue,Middleville,Texas
Angelique,5004 Gebhardt Avenue,Calvert,Rhode Island
Bernie,1114 S Reid Street,Ennis,Massachusetts
Cheyanne,9042 Charlotte Avenue,Airport,Alabama
Lewis,1856 Dean Terrace,Douglas City,Iowa
Sofia,4232 Cardigan,Los Alamos,South Dakota
Kayden,9716 Chester Street,Tooleville,Texas
Garfield,4817 Baltic Avenue,Homeland Park,New York
Acie,12620 Plumed Quail,Vallejo,Rhode Island
Sarah,14641 Crimson Crest,Rancho Chico,Nebraska
Sarai,14360 Burnham Court,Mount Ivy,Illinois
Yesenia,4754 17th Street,Redford,Missouri
Carey,5882 Fox Place,Elwood,Missouri
Eldridge,15399 Tom Bolt,Keswick,Hawaii
Miley,253 Commerce Avenue,Ontario,Hawaii
Anne,4006 Corcoran Street,Lancaster,Nevada
Alvah,11808 Lupe Rivera,Rhinebeck,Mississippi
Anna,8675 Coldstream Court,Seacliff,Pennsylvania
Duff,6932 Andrew Street,Charleston,Montana
Amani,3068 W Jersey Street,Clover,Kentucky
Santiago,11410 Swans Mill Lane,Milton,Minnesota
Hailee,7556 Cambridge Avenue,Linda,Utah
Fred,53 Wong,Mount Calm,Louisiana
Citlali,3502 Young Avenue,Palatine Bridge,Massachusetts
Octave,6592 Covert Street,Nazareth,Missouri
Nylah,8809 Twain Place,Freeport,Maryland
Benjaman,11847 Florence Avenue,Solana Beach,Nevada
Aryana,15359 Cary Court,Warner Robins,Tennessee
Karma,7461 S Jackson Avenue,Stockdale,South Dakota
Magdalena,934 Crowell Court,Castaic,New Hampshire
Anahi,9121 Police Plaza,Round Rock,West Virginia
Esmeralda,13269 Rony Road,Farwell,Wisconsin
Washington,1072 William Street,South San Jose Hills,Alabama
Karissa,13102 Linwood Place,Frankston,Maine
Lauryn,14850 Ingall Street,Exeter,Virginia
Mackenzie,2437 Orchard Meadows Drive,White Creek,West Virginia
Emelia,3490 Newall Avenue,Bishopville,Florida
Bernhard,2262 Plainfield Avenue,La Honda,Maine
Clifford,12817 Jose Bombach,Overland Park,Utah
Glen,4080 Highview Avenue,Cameron,Hawaii
Akeelah,3868 California Avenue,Soulsbyville,Tennessee
Jackson,934 Crowell Court,Lumberton,Nevada
Sydnee,5800 Saint Clair Boulevard,Olivehurst,Missouri
Bella,14814 Church Street,Cameron Park,Pennsylvania
Anderson,15069 Bishop Richard Allen Avenue,Claverack,Tennessee
Foster,3029 Porter Avenue,Bridgeport,Vermont
Sydney,284 S Hartford Avenue,Haviland,North Dakota
Butler,15195 Constellation Place,Waltham,Kentucky
John,2047 Wooster,Yonkers,West Virginia
Scarlett,1104 Alice Terrace,Oakland,Tennessee
Cristal,12618 Alline,Hidalgo,Idaho
Jenna,8231 Woodside Road,Deerfield Beach,Mississippi
Rayna,12622 Beresford Drive,Downey,Illinois
Heaven,7377 Mark Drive,North Lakeport,Indiana
Rayne,5662 Trinity Place,Hewitt,North Dakota
Jalynn,9937 Angney Place,Manuel Garcia,Nevada
Gracelyn,2238 Greeley Avenue,Corvallis,Pennsylvania
Hays,15284 Spring House Road,Grove City,South Dakota
Moriah,10289 Richman Avenue,Lake City,Hawaii
Edgar,42 S Pearl Street,Charlton,Georgia
Mckayla,10052 Oriental Place,Union City,Georgia
Lindsey,14750 Berkshire Drive,Coalinga,New Jersey
Judson,2228 Chetwood Street,Pleasant Valley,North Dakota
Lige,12497 Dey Street,Artois,Idaho
Asberry,10008 Martina,Ava,Louisiana
Anais,11284 US Highway 322,Elk Grove,Nevada
Laura,15458 Trotters Lane,Los Ranchos,Oklahoma
Amina,4900 Old Road,Tulia,Delaware
Karen,4940 Beach Front,Worcester,Wisconsin
Whit,2938 Bailey Avenue,Oceanside,Massachusetts
Alejandra,5530 Paddock Road,North New Hyde Park,Kentucky
Graciela,13676 Stillwell Road,Inyokern,Vermont
Cassie,5625 Woodruff Avenue,Belmont,Connecticut
Millard,13376 Eric Payne,East Sierra,California
Ephriam,11871 Sal Berroteran,Cloverdale-Geyserville,Montana
Hadley,2593 Island Lane,Pattersonville-Rotterdam Junction,Hawaii
Kaya,8231 Woodside Road,Day Valley,Colorado
Forest,11152 Doremus Place,Concow,West Virginia
Ireland,8809 Winners Court,Menard,New York
Burley,4744 Village Lane,Redfield,Wisconsin
Boss,10052 Oriental Place,Spafford,Washington
Dalia,8810 Hobart Street,Ozona,Rhode Island
Atticus,7968 Broadwell Avenue,Garden Acres,North Carolina
Clarence,1775 Paseo Dorado,Sam Rayburn,Illinois
Lambert,9390 S Broad Street,Schuyler Falls,Colorado
Earle,6244 Nesting,Burbank,Iowa
Chancy,8159 River Drive,Lake Havasu City,Colorado
Hillard,12274 Butler Road,Compton,Texas
Early,14575 Depalm Island,Lake Worth,Virginia
Bertie,10776 Niles Street,Edinburg,North Carolina
Hillary,6845 Farmingdale Road,Schaghticoke,Missouri
Ayla,13601 Morgan Terrace,Frederick,Montana
Jadyn,14981 Pinehurst Court,Georgetown,Rhode Island
Kimora,14777 W Shelton Terrace,Pasco,Tennessee
Yasmine,14368 Shackamaxon Drive,Lewisboro,Kansas
Mckenzie,14750 Berkshire Drive,McCloud-Medicine Lake,Illinois
Bertram,14430 Iron Gate,Urbana,Utah
Flor,15508 Pershing Road,Mono Vista,Mississippi
Rachael,12677 Dogwood Street,Paloma Creek South,Louisiana
Stuart,14185 Fred Marti,Fifth Street,Idaho
Merrill,8146 Connecticut Road,Annetta South,Missouri
Caylee,4318 Van Buren Place,Thomaston,New Mexico
Rufus,7620 Flip Wilson Court,Bryson,Utah
Holmes,4646 Carlton Terrace,Rosendale,Louisiana
Elie,325 Floral Avenue N,Providence,Louisiana
Elliana,4920 Jim Colbert,Hebron,Georgia
Conway,5525 Saul Kleinfeld,Death Valley,Michigan
Egbert,1412 Rising Sun,De Kalb,California
Julissa,1661 Clover Lane,Hamilton City,Vermont
Danika,1319 Lyman Dutton,Ventura,Maryland
Wash,1261 Tom Shaw,Chateaugay,Tennessee
Adrianna,4817 Baltic Avenue,Calhoun Falls,New York
Harrison,15280 Martin Luther King Jr Drive,Calhoun Falls,Indiana
Cleveland,13512 S Mount Airy Avenue,Orange,Kansas
Campbell,2576 Acme Place,Lewisville,Delaware
Beatrice,7142 Maple Hill Road,Sienna Plantation,Idaho
Ellis,13790 Christine Circle,Lathrop,Vermont
Reece,309 Lake Huron,Sloatsburg,New Mexico
Kenia,5087 Brookside Court,Laton,Wisconsin
Aria,8021 Bevis Mill Road,Crowell,Maryland
Skye,6666 N Haddon Avenue,Palatine,Minnesota
Ellie,14850 Ingall Street,Highlands,Massachusetts
Rubin,7705 Round Hill Road,Salisbury,Kentucky
Nat,6169 Lighthouse Court,Lancaster,Colorado
Courtney,15391 Pennington Street,Imperial,Minnesota
Nathaniel,11163 Marion Lane,Greeley Hill,Wyoming
Athena,14249 Astronaut,North Elba,South Dakota
Jacqueline,9379 Timberwood Drive,El Rio,Alabama
Orie,8024 Alton Street,Heidelberg,Indiana
Taryn,12598 Garfield Avenue,Paducah,Florida
Nyasia,11223 Post Kennel Road,Mildred,Washington
Ike,3783 Castle Gate,Cove,Nebraska
Gabriel,9295 Kellogg Street,Lewisville,Louisiana
Amelia,4996 English Lane,Shell Ridge,Nevada
Tatum,12397 Carann Lane,Syracuse,Nebraska
Amelie,9913 Martin L King Avenue,Roscoe,New Mexico
Hollie,6796 Stecher Avenue,Dickinson,Louisiana
Ciara,13990 Burke Pkwy,Gause-Milano,Virginia
Kenley,1923 Cook Avenue,Beverly Hills,Arizona
Hollis,11834 Dorothy,Gerber-Las Flores,Nebraska
Morris,3471 Barnard Avenue,Saginaw,Georgia
Colleen,24 Mark Avenue,Boulder Creek,Arkansas
Olen,12211 Ariff Avenue,Manuel Garcia,Alaska
Mina,3276 Pitching Way,Ancram,Montana
Samual,4219 Yorktown Road,Gaithersburg,Alaska
Belton,13376 Eric Payne,Gary City,Alabama
Randolph,2725 Albany Terrace,San Patricio,Maine
Pete,6336 Windsor Way,Nissequogue,Arkansas
Alonza,3505 Daniels,Morristown,South Carolina
Griffin,2386 W Shelton Terrace,Rio Vista,Maine
Alicia,14933 Pitcher Terrace,Valle Vista,Alaska
Russell,13871 Laurel Street,Devine,Idaho
Sheldon,7120 Country Club Drive,South Valley,Minnesota
Alonzo,7120 Country Club Drive,Deer Park,North Carolina
Lorenzo,7997 Forepaugh Avenue,Sullivan City,Kentucky
Paloma,3743 Trotter Road,Mayo,Maryland
Lorenza,11943 Joann Drive,Wellford,Florida
Tiara,870 Mohawk Lane,Brazoria,Missouri
Raven,7372 Plumleaf Road,Brookshire,South Dakota
Vivian,8384 Onrtario Avenue,New Paltz,New Hampshire
Oscar,14578 Hazard Place,Foresthill-Back Country,Wisconsin
Leonard,5069 Spruce Street,Fruitdale,Maine
Norah,14368 Shackamaxon Drive,Baldwin,North Dakota
Tianna,3238 Bergen Square,Winnsboro,Oregon
Jakayla,14936 Saint Paul,Laguna Heights,West Virginia
Philip,10767 Snow Fall,San Simeon,Pennsylvania
Newt,6585 Beech Spring Road,Truxton,Missouri
Wilbur,10487 Breeze,Wanakah,North Carolina
James,408 Poppy Road,Refugio,Arkansas
Alice,12453 Sycamore Road,Bishopville,California
Emilia,14790 Twin Oaks Road,Seven Points,New York
Wing,9780 Formosa Street,Berne,Texas
Claudia,11357 Exeter Way,Pearland,Minnesota
Art,10979 Rolling Peaks Way,Panhandle,Michigan
Brenda,7328 Oxford Drive,De Kalb,Indiana
Jaylen,15236 King Palm,Dix,Montana
Jaylee,13313 Salette,Oklahoma City,Louisiana
Wirt,10720 Bobwhite Road,Sundown,Montana
Ezekiel,15463 Disston Avenue,Liberty,North Carolina
Raquel,3227 Ariff Avenue,Los Alamos,Wyoming
Steven,2935 Mary Alice Court,Lacy-Lakeview,Rhode Island
Audrina,13567 Jerusalem Road,Lake Success,New Hampshire
Prince,13810 Rutgers Lane,East Kern,California
Warren,13006 Fieldbrook Drive,Gasquet,Rhode Island
Garrett,8392 Sumner Avenue,Springville,West Virginia
Alissa,11281 Bayside Place,Wallis,South Carolina
Noel,6543 Carriage House Road,Canaan,Kentucky
Lea,14430 Iron Gate,Shackelford,Delaware
Lee,4105 Charles Street,Hayward,Maryland
Annabella,8637 Linwood Place,New Boston,South Dakota
Lem,1102 Elm Court,Rocky Point,Pennsylvania
Len,5087 Brookside Court,Crown Heights,Pennsylvania
Leo,4251 Looker Street,Bonsall,California
Dave,870 Mohawk Lane,Double Oak,California
Amiah,1150 Howard Place,Woodmere,Oklahoma
Lew,9549 Ivanhoe,Gary,New Mexico
Chris,4039 Bowen Avenue,Murphy,Hawaii
Taniyah,2797 War Feather,Juarez,Connecticut
Kirsten,5318 Garibay,Redding,Virginia
Abby,13634 Donato Circle,Seven Trees,Maine
Joslyn,8303 Giordano Avenue,Fairbanks Ranch,Pennsylvania
Lilliana,10052 Oriental Place,Cold Spring,Nebraska
Gust,9713 Martin Luther King Boulevard,Hurst,Nevada
Neal,7449 Nolan Richardson,Norco,Indiana
Gerrit,7859 State Route 514,Surfside Beach,Florida
Guss,1697 Victor Street,Evans Mills,New Hampshire
Lucius,15374 Amberg Street,Varick,Missouri
Kadence,2838 Sonoma,Genesee Falls,Colorado
Chaya,13620 Arnaz,Galveston,Utah
Baxter,10749 Treasure Hill,Round Rock,Nebraska
Madison,13990 Emerald Gate,Valley Falls,West Virginia
Gaston,3160 S Mount Airy Avenue,McKinney,Kansas
Kassandra,6921 Hayes Avenue,Northeast,Idaho
Allyssa,7422 Beach Street,North Highlands,Texas
Valentina,9864 Ditzel Farm Court,Tiburon,Rhode Island
Ximena,14496 Pueblo Fuerte,Lancaster,Wisconsin
Valentine,6099 Neptune Avenue,Duane Lake,Maine
Cameron,7304 Sheffield Street,Liberty Hill,Oregon
Marley,1257 Tommy Aaron,Thrall,Louisiana
Marius,5171 Park Place,North Merrick,Virginia
Isabela,12249 Bridge Street,Mansfield,Florida
Carleigh,5618 Cuneo Place,West Point,New York
Dallas,13756 Warwick Road,Fairforest,Massachusetts
Lizeth,7783 Schooner,Kings Park,Washington
Isabell,294 Beryllium Road,Plano,Virginia
Haleigh,7341 Hamilton Terrace,Rochester Hills,Vermont
Krista,15133 Carteret Street,Hartley,Florida
Mercedes,1834 Rain Dance,Stonecrest,Washington
Aaron,14493 9th Street,Cambria,Washington
Adamaris,2369 New Gretna Avenue,Edisto-Shaws,North Dakota
Tayla,1459 Greenbriar Lane,Melissa,Minnesota
Martha,10721 West Street,San Saba,North Dakota
Miya,4603 Sea Breeze,Quemado,Michigan
Elvis,1775 Paseo Dorado,Scio,Idaho
Aloysius,3276 Pitching Way,Cameron,Idaho
Elvin,13051 Arrowwood Drive,Mobile,Mississippi
Hans,4423 Italy Terrace,Cambridge,Missouri
Elena,10721 West Street,Bartlett,Idaho
Herman,10893 Orbit,Grandview,Florida
Maliyah,5362 Decadon Drive,High Falls,Iowa
Kelsie,14456 Creek Road,Hickory,Louisiana
Jean,13692 Cross Avenue,South Huntington,California
Golden,2204 Larch Street,Bloomingburg,New Hampshire
Marianna,14879 Little John Court,Anderson,Mississippi
Toni,15069 Bishop Richard Allen Avenue,Clarendon,Rhode Island
Patience,6698 Cranberry Court,Enid,Arkansas
Tony,10979 Rolling Peaks Way,Dayton,Vermont
Oda,7179 Chapel Run,Warsaw,Texas
Enrique,12319 Pueblo Nubes,Fenton,Washington
Jessie,1821 Hartford Avenue,Orange,North Dakota
Tina,9486 James Chisum,Biardstown,Iowa
Orval,9582 Sassafras Court,Somerset,Arkansas
Hudson,3163 Corbin Avenue,Cushing,Kansas
Josh,6366 Formosa Street,Balmville,New Hampshire
Deanna,4481 Maddaket,Sioux Falls,South Carolina
Abigail,8481 Frederick Terrace,Squirrel Mountain Valley,Alabama
Carson,10088 17th Street,Anderson Mill,Mississippi
Hector,3112 Saint Crispin,Nichols,Arkansas
Virgil,7105 Depot Place,Corpus Christi,California
Melissa,5274 Tekoa,Toledo,Kentucky
Sid,6169 Lighthouse Court,Aiken-Neuville,Vermont
Sim,2369 New Gretna Avenue,Lemon Grove,Maryland
Kaila,2773 Hemlock Avenue,Laytonville,Nevada
Francisco,11366 Pier,Sealy,Kentucky
Maya,1923 Cook Avenue,Brooktrails,New Hampshire
Andres,14721 Morgan Bay,Newton,Nebraska
Andrew,8406 Clinton Avenue,Big Valley,South Dakota
Ramon,2386 W Shelton Terrace,Boron,Utah
Nolan,6790 Hann Place,Salina,Pennsylvania
Burke,6104 Cassatt,Yosemite,Massachusetts
Ephram,4032 Ravenwood Drive,Haslet,Washington
Tracy,1598 N New Jersey Avenue,Hat Creek,Virginia
Andrea,6104 Cassatt,Biola,Texas
Susana,8621 Fred Perry,Georgetown,Colorado
Hunt,15284 Spring House Road,Sandy,Georgia
Eben,8698 Lorenzo Ruiz,Monument Hills,South Dakota
Arnold,4010 Traveller Way,Cayuga Heights,Virginia
Eber,10677 N Laclede Place,Fillmore,Utah
Harman,8859 Rev J J Walters Avenue,Elmhurst,Washington
Edie,1150 Howard Place,Morton,Wisconsin
Ida,11307 Horseshoe Court,Amsterdam,Kansas
Charley,13273 Thoreau Terrace,San Bernardino,Ohio
Emile,13676 Stillwell Road,Suffern,New Mexico
Charles,12985 Formosa Street,Southwest Shasta,Nebraska
Clifton,7925 Repetto Avenue,Cary,Maryland
Fleming,8674 N Massachusetts Avenue,Sugar Land,Minnesota
Jess,1316 Furlong Circle,Terrell,Missouri
Bertha,95 Liberty View Drive,K-Bar Ranch,Hawaii
Willam,5729 Brook Hollow Lane,Falconer,North Carolina
Charlee,1697 Victor Street,Ross,Massachusetts
Emily,3823 Parmelee Place,Auburn Lake Trails,New York
Bryanna,14859 Chancellor Street,Seattle,Kentucky
Aryanna,10593 Lineau Place,San Pasqual,Idaho
Kayleigh,2648 Whitewood Road,Scotchtown,Michigan
Shelby,3221 Warcloud,Rancho Calaveras,Iowa
Mathias,7304 Sheffield Street,Indian Wells,North Carolina
Alani,9916 N Connecticut Avenue,Sammamish,Georgia
Hiram,15015 Brettwood Drive,Hill Country Village,New Jersey
Nadia,1436 Overlook Terrace,Goldsmith,West Virginia
Erasmus,2228 Chetwood Street,Sutter Creek,Hawaii
Jaelynn,1579 Dragon Crest,Lake Worth,Utah
Annabelle,14647 Brook Street,Muscoy,Iowa
Burl,13051 Arrowwood Drive,Bettie,Utah
Dan,989 Great Spirit,Lindcove,Wisconsin
Burt,2262 Carriage House Road,King City,Ohio
Dominick,1316 Furlong Circle,West Jordan,Alabama
Burr,7865 Exodus,Nanuet,Indiana
Oren,4660 Higbee Avenue,Leeds,Mississippi
Lyle,5766 Short Avenue,Ontario,Indiana
Eleanor,2529 Custer Avenue,Marlborough,North Dakota
Lyla,4287 Taylor Avenue,Luling,Maine
Genevieve,11357 Exeter Way,Jupiter,Oregon
Abram,3027 Sea Horse,Hague,Montana
Azaria,2113 Buffalo Avenue,East Williston,Louisiana
Parker,9262 Country Club Boulevard,Leon,Iowa
Ulysses,12381 Rosetta Place,East Lansing,Wyoming
Melina,13382 Amstater,Sound Beach,Florida
Kali,5341 Boston Court,Goshen,South Dakota
Jazmin,13491 Coolidge Road,Wolcott,Arizona
Jaida,10757 Red Hawk,Cold Spring,Rhode Island
Kayley,13041 Montague Place,Foresthill,Wyoming
Kaylee,7783 Schooner,Cranfills Gap,Oregon
Hope,10236 Malcolm Road,Downey,Georgia
Kaylen,6114 Kingdom,Casper,Arkansas
Allisson,12225 Tampa Place,Wells,North Carolina
Emely,9937 Angney Place,Seeley,California
George,8585 Branch Hill Drive,Lake Charles,Florida
Tatiana,2238 Greeley Avenue,West Jordan,Nebraska
Rex,14515 Jeffrey Lane,Fullerton,Colorado
Antonia,4575 Nesbitt Avenue,Kaufman,Arizona
Wilton,1397 Coco Palm,Fowler,Washington
Nellie,4442 Tom Bolt,Concord,Texas
Rich,8731 Oak Hill Road,Grayson,Wyoming
Orange,9251 Liberty Avenue,Cornwall,Missouri
Rice,2534 Nicholas Avenue,Garden Ridge,Vermont
Bert,8225 Beach Avenue,San Felipe,New Hampshire
Alina,2188 Dean Terrace,Pavilion,Indiana
Bruce,10893 Orbit,Granville,Texas
Ford,13893 Rakocy,Blue Lake,Rhode Island
Cruz,14731 Center Street,Normal,Missouri
Perley,1835 Dubois Avenue,Roanoke,Kentucky
Alia,8296 Chopin Court,Shamrock,Nebraska
Joeseph,6769 Azteca,Knoxville,Wyoming
Francis,7067 Esmond Place,Augusta,Illinois
Emma,15197 Teddy Avenue,Annetta North,California
Makenzie,6671 Fernwood Terrace,Paul Smiths,Oklahoma
Berry,10190 Harbor Road,Tom Bean,Kansas
Damaris,174 Shackamaxon Drive,Citrus,New Mexico
David,4354 Pueblo Seguro,Canutillo,Virginia
Amanda,6577 Osprey Court,Hoover,North Carolina
Alyssa,7784 Creston Avenue,Blue Berry Hill,Virginia
Charlize,416 Gurd Avenue,Fountain Valley,New Jersey
Saul,14637 Tower Hill,Winton,Virginia
Webb,6170 Orchard Street,Parker,Georgia
Dean,10183 Howell Street,Waukegan,Massachusetts
Essence,2035 Rio Violento,Strawn,Utah
Boston,4414 Beachcomber,Phoenix,Oklahoma
Percy,15197 Teddy Avenue,Chattanooga,Kentucky
Travis,4399 Intrepid Court,Eutawville,Georgia
Aimee,10790 Southampton Street,Saranac Lake,Ohio
Amirah,2702 Anndover Gardens,La Esperanza,New Mexico
Francesca,4080 Highview Avenue,Bloomington,South Carolina
Baldwin,5278 Trey Burton,East Cameron,Maryland
Marrion,11078 Canary Palm,Feather Falls,South Carolina
Kiana,3312 River Drive,Fort Johnson,Michigan
Justice,10094 Bretwood Drive,Olar,Nebraska
Thornton,11986 Lawn Place,Coachella,Indiana
Abbey,12679 Royal Crest,Bronte,Louisiana
Fabiola,12622 Beresford Drive,Archer City,Wyoming
Mannie,12823 Tonnele Avenue,Buena Park,New Hampshire
Casimiro,13528 Evans Street,Rosita,Kentucky
Isaac,10215 Kent Drive,Fresno,Iowa
Ashtyn,8930 Overlook Way,Exeter,Indiana
Jane,13771 Oak Abbey,Laguna,Kentucky
Lia,1995 Swan Drive,West Pearsall,Washington
Sanders,3689 Pawn Court,Goodyear,Florida
August,13476 Communipaw Avenue,Diablo,New Hampshire
Giselle,9137 Dick Mayers,Oildale,Washington
Laney,978 Stanton Avenue,Volta,Michigan
Jaclyn,7868 Red Sails,La Puerta,Alaska
Clement,3112 Saint Crispin,Monroe,Nevada
Tilden,6940 Chime Tower,Bella Vista,North Dakota
Marlee,8528 Seaside Avenue,Knoxville,Michigan
Ben,10200 Skipper,Naples,Maine
Lorelei,5273 Edward Hart Drive,Challenge-Brownsville,Pennsylvania
Orlando,7250 Winfield Terrace,Dunnigan,New Mexico
Eve,11800 Crown Court,North Sea,Georgia
Hayes,2811 Quigley Avenue,Winthrop,Indiana
Asher,9137 Dick Mayers,Freeport,Minnesota
Alvin,1027 Mallory Avenue,Sultana,Ohio
Brad,7015 Fairfax Road,Del Rio,Delaware
Duke,4005 Treeview Circle,Brenham,Kentucky
Ferd,10492 Cezanne,South Woodbridge,South Carolina
Joseline,5824 James A Hamil Drive,Sardis,Kansas
Sage,11943 Joann Drive,Massapequa Park,Pennsylvania
Abner,6169 Lighthouse Court,Centerville,Alabama
Hershel,2108 13th Street,Chappaqua,Arizona
Rowan,13262 John Polley,Westfield,Utah
Lilia,14394 Lafayette Avenue,Planada,Maryland
Johana,9846 4th Avenue,Brownfield,Mississippi
Sharon,1257 Lamar,Loomis Basin-Folsom Lake,West Virginia
Heather,8975 Charles Court,Rockdale,Florida
Ernie,5362 Decadon Drive,Keene,Florida
Stephany,5329 Jay Place,Harbor Hills,Missouri
Catherine,2035 Rio Violento,Bismarck,Connecticut
Layla,6366 Formosa Street,Hastings,Montana
Edmund,10751 Stone Street,Columbia,Hawaii
Avah,11284 US Highway 322,West Point,Arkansas
Damon,284 S Hartford Avenue,Piedmont,West Virginia
Walter,15245 Coe Avenue,Lower Lake,Wyoming
Noble,2004 Monica Place,Plant City,Rhode Island
Desirae,8437 Ann Street,Daytona Beach,Massachusetts
Woodie,1901 Creek Road,Bridgehampton,Arizona
Jere,1801 Oriental Avenue,Sour Lake,Georgia
Mayra,10647 Leland Place,Great River,Massachusetts
Natalie,6613 N Boston Avenue,Clermont,Illinois
Natalia,7105 Ogden Road,Thousand Oaks,Maryland
Tania,2935 Mary Alice Court,Black Brook,Wisconsin
Lawson,1701 Covert Avenue,Kannapolis,Idaho
Martin,1490 Luis Drive,Boykin,Michigan
Valery,13790 Christine Circle,Concow,Arizona
Soloman,13241 Monroe Avenue,Donner,Minnesota
Wilburn,9291 Robert Best Road,Chemung,Louisiana
Saniyah,13561 Biscayne Boulevard,East Orange,Delaware
Edd,3351 Saint Thomas,Fayetteville,Missouri
Kiara,12329 Saint Laurence,Shepherd-Evergreen,Washington
Isabel,8637 Linwood Place,Little Rock,Arkansas
Leslie,5996 Broadwell Avenue,Parish,Virginia
Manley,15500 Paseo Del Sol,Yorktown,Michigan
Jaslyn,13295 S Annapolis Avenue,Joaquin,Iowa
Morton,414 Cynthia Farah,St. Louis,Alabama
Aliana,14041 Sussex Avenue,Oak Point,Pennsylvania
Barney,2487 Red Fox,San Leandro,Georgia
Jay,3829 Tom Shaw,New Home,Washington
Dell,9846 Terrace Avenue,Tustin,North Carolina
Rihanna,15216 Edgar Degas,Weott,Rhode Island
Kinley,9188 Ridgeview Avenue,Waltham,Maryland
Simon,7163 Albany Terrace,Melville,Louisiana
Elias,10979 Rolling Peaks Way,Upper Nyack,Ohio
Teagan,10470 7th Street N,Richland Springs,Maine
Frances,13208 Sami,Cochecton,Indiana
Aron,2745 Desert Rain,Linn,Nebraska
Waverly,8637 Linwood Place,Benjamin,Alabama
Rodney,2262 Carriage House Road,Lemoore,Arizona
Kirby,6702 Wooding Terrace,Methuen,Montana
Huston,6761 Braun Terrace,San Diego Country Estates,Montana
Wesley,4394 Pueblo Laguna,Carlisle,North Dakota
Anson,12213 Barnard Place,Copper Canyon,New Jersey
Cullen,8270 Nevin Street,Jamesport,Tennessee
Whitney,10668 Fiji Palm,Covina,Rhode Island
Adalynn,6168 Woolley Avenue,Port,New Jersey
Alisa,6250 Da Vinci,Meadow Vista,North Carolina
Grace,5846 Anna Street,Thorntonville,Texas
Buck,951 Springfield Road,Canyon,Utah
Kyla,5132 Burkley Place,Mentz,New York
Kyle,5186 Truman Avenue,Kosse,New York
Augusta,1775 Paseo Dorado,Bixby,Oklahoma
Halie,10285 Chelsea Avenue,Bellevue,Nebraska
Gordon,6702 Wooding Terrace,National City,Pennsylvania
Kaitlin,7716 Pierce Avenue,Floresville,Idaho
Webster,11072 Princeton Road,Cooperstown,Oklahoma
Zeke,11451 Waverly Place,Brownsville,Washington
Yamilet,7914 Bancroft Avenue,Bellport,Illinois
Theron,4156 Savitt Place,Bridgewater,Massachusetts
Marlene,10556 Ocean Side,Darien,Illinois
Kaitlynn,3138 Kempshall Place,Teviston,Hawaii
Wilbert,10088 17th Street,Tonawanda,Idaho
Mila,14380 Brookside Court,Holiday Lakes,Pennsylvania
Kenya,15431 Stone Street,Bay Park,Tennessee
Mariah,2289 Ryan Street,Bellflower,Oregon
Luz,11087 Bobby Jones,Hemphill,Rhode Island
Lue,8524 Golden Court,Sharon,Kansas
Isis,13790 Christine Circle,Smithfield,New Mexico
Rebeca,5795 Chisholm Pass,North Hudson,Oregon
Caroline,7519 Larry Mize,Green Valley Farms,Hawaii
Lum,14430 Iron Gate,Mansfield,Kentucky
Deborah,2702 Anndover Gardens,Westminster,Michigan
Lucas,13065 Connecticut Road,Rocky Point,Nevada
Elizabeth,9473 Morris Avenue,Yountville,Illinois
Elaina,14638 Morris Pesin Drive,Mayfield,Delaware
Joy,12225 Tampa Place,Chance-Loeb,Hawaii
Theresa,2315 Bayview Avenue,Shinnecock Hills,Texas
Journey,3331 Arrow Knoll,Highland Haven,Virginia
Joe,3399 Valor,East Williston,Nebraska
Noelia,8296 Chopin Court,Halcott,Texas
Josie,10285 Chelsea Avenue,Claverack,Wyoming
Valeria,5277 S Tennessee Avenue,Richmond,Maine
Valerie,1606 Crystal Lake Drive,Ozona,New Jersey
Verner,4646 Carlton Terrace,Forest Hill,Idaho
Judd,11785 Dylan Drive,New Bedford,New York
Felipe,8119 Abbett Street,Bridgeport,North Dakota
Ervin,2752 Rhonda Court,North Dansville,Florida
Lilyana,5387 English Lane,May,Mississippi
Kylie,1132 Haddad,Harlingen,Oklahoma
Will,14743 Lake Travis,Hamilton Branch,New Jersey
Ammon,4277 Oak Hill Drive,Lindsay,Idaho
Julian,10094 Bretwood Drive,Grape Creek,Wyoming
Sammie,1958 Fox Hill Lane,Hawthorne,South Dakota
Layton,2664 Juliat Place,Avinger,Mississippi
Erin,2773 Sea Palm,Ogdensburg,Virginia
Elder,4623 N Brighton Avenue,Frewsburg,North Dakota
Erastus,11685 Briarwood Lane,Lyons,Nevada
Itzel,6258 Cool Brook,Pecan Acres,Connecticut
Erie,15120 Poplar Avenue,Davis,Maryland
Elbridge,4303 Louisa Street,Opal Cliffs,Washington
Eric,1606 Crystal Lake Drive,Yorkville,Washington
Hattie,10099 North Avenue,East Lansing,Hawaii
Sanford,6921 Bates Street,Gilbert,Wyoming
Kiera,14344 Black Horse Pike,Alameda,Arizona
Blanca,8055 Eisenhower Drive,Junction,New Mexico
Cherish,14252 Andrew Street S,Minkler,Iowa
Royal,11195 Girard Place,Portville,Arkansas
Asia,9715 Webb Street,Radar Base,Wyoming
Megan,5148 Manhattan Avenue,Euless,Kentucky
Gottlieb,4532 Walter Avenue,Newport Beach,Arizona
Averie,854 Pearsall Avenue,Oak Valley,Missouri
Giana,6796 Oak Avenue,Rancho Banquete,Georgia
Sophie,6150 Ash Street,Blackhawk,Tennessee
Levy,4660 Higbee Avenue,Ione,Montana
Diamond,10620 Wilmington Avenue,Vancouver,Texas
Joselin,11968 Thundercloud,Villa Park,Nevada
Palmer,1209 Bodnar Street,Lexington,Montana
Emit,10358 N Missouri Avenue,St. Helena,Illinois
Levi,8045 May Drive,Deerfield,Colorado
Keira,7893 Rebecca Place,Toledo,Alabama
Destinee,15183 Desert Quail,Lake George,North Carolina
Margarita,10041 Bedford Drive,Cobb,New Mexico
Thurman,11187 Sal-Laf Court,Olcott,Ohio
Buster,8600 Richmond Street,Serenada,New Mexico
Almon,15112 Bessemer,Winterhaven-Bard,Colorado
Jazlynn,3014 Bayberry Avenue,Apalachin,Montana
Elihu,4477 Stegman Terrace,Glenville,Ohio
Patrick,4386 N Gate Road,Castle Hill,Connecticut
Elsworth,4806 Beach Avenue,Richfield,Pennsylvania
Presley,15546 Lautoka Lane,De Peyster,New York
Miracle,7790 Muriel Pkwy,Java,New Mexico
Miles,3163 Corbin Avenue,Magnolia,Nevada
Beverly,12399 Cannon Forge,Wildomar,South Dakota
Omer,174 Shackamaxon Drive,Ellicottville,West Virginia
Lafe,294 Beryllium Road,Lake Jackson,Utah
Alannah,3559 Carriage House Road,Tomball,New Jersey
Isadore,2238 Greeley Avenue,Cortland,Delaware
Lillianna,9844 Nasa,Pueblo Nuevo,Nevada
Adelard,7510 Boyd Avenue,Green Bay,Oklahoma
Teresa,9035 Paducah,San Mateo,Texas
Lester,5909 May Drive,Yuma,South Carolina
Starling,15430 Stone Castle,Alma,New Mexico
Hubert,854 Pearsall Avenue,Whittier,Florida
Liliana,9 Beresford Drive,Bloomington,New Jersey
Jamya,4477 Stegman Terrace,San Felipe,New Mexico
Clint,9370 N 3rd Street,Robbins,Nevada
Orrin,11750 Lilac Drive,Waxahachie,Kansas
Orrie,14493 9th Street,Watsonville,New Mexico
Cali,8615 Paseo Del Rey,Labelle,Alaska
Maia,10685 Silver Gate,Barnwell,Arizona
Crawford,2479 Swaps,Nesbitt,Alabama
Wiliam,13890 Sandpiper Drive,Walton Park,Arizona
Sadie,11284 US Highway 322,Florissant,Michigan
Murphy,10983 Bernards Avenue,Winfield,Nebraska
Sariah,5870 Riverstone,St. Paul,Mississippi
Hermon,15221 Sunrise Circle,Bellmont,West Virginia
Karlie,8810 Hobart Street,Calpella,Maine
Hall,4054 Sutton Place,Terrell,Tennessee
Addisyn,12757 Larry Wood,Orleans,Louisiana
Hardin,9487 Field Place,Biloxi,Delaware
Quinn,11840 Jean Terrace,Canastota,New Mexico
Hardie,4246 Snow Fox Road,Tyler,New Mexico
Allison,2774 Old Egg Harbor Road,Saratoga Springs,South Carolina
Wong,2437 Orchard Meadows Drive,Follett,Kansas
Issac,3476 Cleveland Road,Wawarsing,Illinois
Celeste,9 Beresford Drive,Kissimmee,Idaho
Ashanti,2620 Fairmount Terrace,Columbia,Georgia
Audrey,10150 Sunrise Avenue,Westmorland,North Dakota
Ocie,13374 Wendy Court,Tigard,Connecticut
Ellsworth,5338 James Guines,Kentwood,Hawaii
Janiyah,8977 Traveller Way,Arcadia Lakes,Vermont
Sky,14264 Island Avenue,Wills Point,Illinois
Roland,3750 Graham Street,Williamson,Massachusetts
Stephen,13075 Rose Avenue,Brewster Hill,Colorado
Roll,4073 Essex Drive,Freer,Maine
Tess,10675 Trent Place,Louise,Louisiana
Ples,9350 Branford Avenue,Lakehead-Lakeshore,Washington
Madilynn,10357 Meadow Street,Jasper,Ohio
Wm,12994 Hamilton Street,Macdona,North Carolina
Nayeli,10714 Fabian Avenue,Nurillo,New Hampshire
Bianca,10647 Leland Place,Nelliston,Illinois
Arlington,7067 Esmond Place,Elkhorn,Georgia
Luther,2661 Carlsen Drive,Grangeville,Washington
Louis,11951 Dragon Crest,Capitola,Mississippi
Kylah,14143 Jackson Terrace,San Gabriel,Washington
Gwendolyn,4719 Jamaican Palm,Humble,Mississippi
Jazmyn,9626 S Mount Airy Avenue,Ballard,Tennessee
Louie,5493 Karen Sue,Hume,Minnesota
Gillian,10861 Davison Avenue,Avocado Heights,Alaska
Angel,6761 Braun Terrace,Constable,California
Ruffus,407 Oakview Drive W,Oak Lawn,North Dakota
Felix,1316 Furlong Circle,Willowbrook,Virginia
Denise,2702 Anndover Gardens,Rouse,Arkansas
Allen,9337 Short Avenue,Eutawville,Indiana
Zoie,7882 S Trenton Avenue,Pontiac,Louisiana
Grant,8859 Rev J J Walters Avenue,Elm Creek,Virginia
Colonel,4784 Madison Terrace,Highland,New Hampshire
Patricia,7009 Devon Drive,Cherry Valley,Iowa
Knute,13641 McWilliams Place,Oildale,South Carolina
Leon,8538 Banner Run,El Portal,Minnesota
Johnson,6652 Amy Sue,Smallwood,Minnesota
Elam,4575 Nesbitt Avenue,Roseville,Tennessee
Jonah,3027 Van Gogh,Oroville East,West Virginia
Mathew,3061 Devonshire Drive,Seven Trees,New York
Jonas,10044 Orbit,Kiryas Joel,Oregon
Trinity,1835 Dubois Avenue,Southwest Grayson,Florida
Thad,14496 Pueblo Fuerte,Holliday,West Virginia
Heber,11176 Marmora Avenue,Oak Ridge,West Virginia
Lilian,11154 Brentwood Road,Rendon,Alabama
Evertt,7015 Fairfax Road,Veteran,Tennessee
Urban,13672 Whitman Avenue,Cato,Missouri
Ashby,5766 Troy Street,Greer,Delaware
Joseph,14899 Apple Tree Lane,Compton,Illinois
Minnie,4251 Rosehill Place,Walker,Oklahoma
Kaylynn,2262 Plainfield Avenue,Wilson,Maryland
Lavern,1102 Elm Court,Weston Mills,North Dakota
Monte,4076 Abingdon Drive,Canastota,Nevada
Carolyn,4039 Miller Street,Fruitvale,Montana
Lacie,9723 2nd Avenue,Malone,Alabama
Cornelius,12211 Ariff Avenue,Hollister,Nebraska
Ransom,10236 Malcolm Road,Grenada,Maryland
Jaylene,6170 Orchard Street,San Rafael,Alabama
Skyler,1027 Mallory Avenue,Denver City,Maine
Jose,8840 Gales Court,Santa Clara,Mississippi
Mollie,15412 Monticello Street,Nacogdoches,Michigan
Pearl,8466 Van Nest Place,Waukesha,South Dakota
Wylie,15166 State Route 439,Alba,Louisiana
Solomon,1224 Carver Avenue,Springville,Oregon
Jaslene,2258 Munn Avenue,Marlborough,Virginia
Riley,15458 Trotters Lane,Bolinas,Massachusetts
Loyd,811 Fairway Drive,Romulus,Wisconsin
Melanie,15133 Carteret Street,North Syracuse,South Carolina
Floyd,14715 Paseo Festivo,Manhattan,South Dakota
Amari,1376 Edgewood Pkwy,East Crockett,Pennsylvania
Dora,216 Magnolia Place,Redwood,Massachusetts
Amara,13901 Lamar,Hondo,Arkansas
Bud,2907 Broad Street,Chireno-Martinsville,New Mexico
Ashlynn,2158 Morning Glory Court,Speculator,Michigan
Phil,15112 Bessemer,Morgan's Point,Minnesota
Vincent,3722 Rolling Hill Road,Port Royal,Oklahoma
Barbara,4304 Frank Cordova,Rankin,Wyoming
Kenneth,9066 Lighthouse Court,Queens,Ohio
Marshall,10747 Livingston Street,Hoosick,Connecticut
Reagan,11287 Eagon Avenue,San Ignacio,Nevada
Luisa,7244 Grammercy Avenue,Aiken-Neuville,Arkansas
Sloane,6442 Briarcliff Drive,Pamelia Center,West Virginia
Laurel,10945 Devonshire Drive,Watkins Glen,Maine
Lauren,10852 Boa Place,East Porterville,Iowa
Mercer,6632 Lake Ozarks,Hasley Canyon,Alaska
Reina,12720 Essex Avenue,Oxford,Alabama
Edwin,5530 Paddock Road,Taylor,Michigan
Dick,10599 Dayton Street,Desert Palms,Oregon
Brianna,6935 Giordana Avenue,Layton,North Carolina
Otis,6531 Inverness Drive,Cohocton,Texas
Wood,5343 Country Club Boulevard,Talco,Georgia
Mckinley,9944 16th Street,Valley,Connecticut
Isiah,14790 Twin Oaks Road,Coronita,Montana
Israel,8622 Atlantic City Expy,Hounsfield,Oklahoma
Nya,726 Floyd Street,Rollingwood,South Carolina
Hoyt,3458 Crest Lane,Otto,Massachusetts
Faith,6147 Waterway Avenue,Owego,South Carolina
Arden,1356 Rider Avenue,Ballston Spa,Kentucky
Azul,1405 Wyoming Avenue,Avalon,California
Freddie,4719 Jamaican Palm,Breesport,California
Tatianna,9529 Apollo Street,Carlisle-Turnertown,Idaho
Nels,15221 Stowe Street,Afton,Alabama
Natalya,15016 Erie Street,Valley Falls,Idaho
Carol,14041 Sussex Avenue,Constable,Alabama
Jodie,5645 N Dover Avenue,Dobbs Ferry,North Carolina
Antone,6587 Kawameeh Lane,Glendale,Maine
Leroy,8584 Aetna Street,Cresson,Delaware
Lorena,4414 Beachcomber,Broadmoor,Maryland
Tori,12944 Whitewater Lane,Kenmore,Virginia
Lucero,2247 Oberlin Avenue,Dayton,Alabama
Arianna,4498 Seabreeze Avenue,Houston,Pennsylvania
Iyana,6869 Hutton Street,Oyster Bay Cove,Montana
Shade,13620 Arnaz,Walker,West Virginia
Hampton,2262 Carriage House Road,Camp Ground,Michigan
Rene,6144 Pueblo Chico,Trinidad,Pennsylvania
Hallie,12365 S Park Terrace,Leesburg,Michigan
Carlton,6198 Dock Lane,Spreckels,Vermont
Savanah,3027 Van Gogh,Caruthers,Nebraska
Pink,12998 Isomedix,Hale Center,Oregon
Jimmie,13637 Fields Lane,Bloomburg,Oklahoma
Kaitlyn,2773 Hemlock Avenue,Escondido,Texas
Dewitt,8055 Eisenhower Drive,Spanish Fork,Missouri
Lesley,13174 Norwegian Wood,Navarro,Kentucky
Liana,3331 Arrow Knoll,Pittsburg,New Jersey
Daniel,10565 Otter Lane,Beacon,Wisconsin
Judith,6182 Northfield-English Creek Boulevard,Yreka,Iowa
Sterling,12631 Rives Mcbee,Pompano Beach,Georgia
Prosper,4309 Claremont Terrace,Santa Clara,Tennessee
Zack,3816 Pine Terrace,Pine Plains,Maine
Tillman,3894 Westminister Place,University Park,Wisconsin
Margaret,11436 Sutton Place,Beekman,Georgia
Olive,10776 Niles Street,Collinsville,Kentucky
Kyleigh,5766 Troy Street,Temelec,Maryland
Elonzo,13984 Ash Street,Pine Valley,Nebraska
Jayla,9601 Westcoat Road,Pultneyville,West Virginia
Kasey,4073 Lillian Terrace,Gordon,South Dakota
Phillip,3306 Rockport Drive,Brasher Falls,Missouri
Mont,10041 Bedford Drive,Greenvale,Georgia
Shelton,6702 Wooding Terrace,Center Point,Mississippi
Adrien,6315 3rd Street,Lake Katrine,Connecticut
Toney,14899 Elmwood Place,Sunnyside,Alaska
Alyvia,9451 Billet Hill,Wylie,Alaska
Ebb,12622 Beresford Drive,Clarendon,South Dakota
Elmo,14211 Dean Martin,China Spring,Alabama
Augustus,4770 Liberty Road,Patchogue,Arkansas
Troy,14650 Dorset Avenue,Independence,Texas
London,5143 Caven Point Avenue,Palacios,Massachusetts
Izabelle,1893 Putnam Road,Bergen,West Virginia
Mya,6169 Lighthouse Court,Grand Rapids,Wisconsin
Perry,10721 Garden State Road,Des Plaines,Missouri
Mara,13485 Bademann Place,Newfane,Arkansas
Elick,7048 Belmont Drive,Walker,Hawaii
West,6921 Hayes Avenue,Blacksburg,Colorado
Ned,11968 Thundercloud,Southwest Bell,Oregon
Reuben,12200 Broken Arrow,Cuyler,Illinois
Mark,1570 Marine Terrace,Eagle Mountain,Washington
Kierra,8621 Fred Perry,Covina,Georgia
Ellen,15195 Heather Lane,Scotia,Alabama
Alfred,5507 Oakwood Pkwy,Sunol-Midtown,Alaska
Delaney,9696 W Side Avenue,Rancho Murieta,Louisiana
Mary,1438 Bayway Avenue,Hinsdale,Mississippi
Rube,13578 N Saint Katherine Place,Woodland,Montana
Augustin,1459 Greenbriar Lane,Macon-Bibb County,Kentucky
Monserrat,10190 Harbor Road,Edwards AFB,Iowa
Bethzy,1157 Heritage Lane,Tivoli,Iowa
Rubi,4775 Kingsley Drive,Shady Hollow,West Virginia
Merton,5316 Paseo Real,Leander,New York
Artie,6615 Turnberry Drive,Cashion Community,Florida
Vaughn,6430 Fenton Avenue,West Odessa,Texas
Ruby,6129 General Karge Court,Spokane,Arizona
Marilyn,9113 Equestrian Road,Centerville,South Carolina
Giada,5295 Branford Avenue,Shepherd-Evergreen,Rhode Island
Earl,15221 Stowe Street,Waterford,Illinois
Rutherford,4073 Essex Drive,Kershaw,New Jersey
Rhianna,12631 Rives Mcbee,Harriman,Mississippi
Olin,415 S Myrtle Street,Circle D-KC Estates,Pennsylvania
Abel,937 N Missouri Avenue,Gayle Mill,Illinois
Londyn,4483 S Vermont Avenue,Spencerport,New Hampshire
Esta,3183 Jones Place,Huntington,Texas
Abagail,3276 Pitching Way,Joshua Tree,Montana
Jaiden,4518 Bing Crosby,Callisburg,Iowa
Autumn,15423 S Boston Avenue,McConnells,Vermont
Celine,15373 Senate Avenue,St. Cloud,Wisconsin
Blaine,14522 Tilton Road,Joshua Tree,New Jersey
Julianna,1667 Brettwood Drive,Wheeler,Rhode Island
Julianne,14971 Sagemore Court,Campbell,South Carolina
Cindy,8615 Paseo Del Rey,Rose Hills,New York
Nicolette,8693 Lorri,Rowland Heights,Wisconsin
Add,2035 Rio Violento,Arial,Illinois
Otto,10231 Warrena Road,Kentfield,Maine
Celia,5507 Oakwood Pkwy,Middleport,Florida
Joselyn,5870 Riverstone,Pine Valley,Washington
Finley,3892 Michigan Avenue,Winthrop,Wyoming
Harold,989 Great Spirit,West Columbia,Arkansas
Wheeler,579 Avenue at Port Imperial Avenue,Covina,Hawaii
Hailie,1234 Dragonfly,Hilltop,Indiana
Arch,9262 Country Club Boulevard,Bishop,Hawaii
Sabrina,2774 Old Egg Harbor Road,Brookhaven,Nevada
Mylee,11287 Eagon Avenue,Hilton,North Dakota
Junious,8977 Traveller Way,Mikes,Mississippi
Ambrose,14084 Stadium Court,Barrett,Iowa
Mikaela,4920 Jim Colbert,Manlius,Oregon
Horace,6702 Wooding Terrace,Bloomville,Ohio
Jaliyah,7516 School Place,Woodbury,Kansas
Luciana,15348 Boxwood Court,Peru,Massachusetts
Harry,7681 Carriage Drive,Almond,Maryland
Walker,125 Long John,Dunnigan,California
Carlie,13376 Eric Payne,Gouverneur,Ohio
Lawerence,251 Glen Aire Drive,Searingtown,Idaho
Haley,4338 Seymour Avenue,Honolulu,Alabama
Princess,4309 Claremont Terrace,Lumberland,New York
Mckenna,7516 School Place,Melville,Michigan
Eddie,10200 Skipper,Saratoga,Wyoming
Jaylin,13211 Chito Samaniego,Lackawanna,Wisconsin
Aliyah,7519 Larry Mize,Coffee Creek,Idaho
Joanna,7454 Saint Paul,Laguna,South Dakota
Ava,2147 Oakland Avenue,Conesville,Minnesota
Alison,15500 Paseo Del Sol,Roma-Los Saenz,California
Madisyn,7381 Olive Street,Stockport,Ohio
Louise,15092 Applegate Avenue,Gainesville,Colorado
Camille,7454 Saint Paul,East Farmingdale,North Carolina
Camilla,13890 Sandpiper Drive,Green Island,Rhode Island
Ferdinand,11951 Dragon Crest,Olanta,Colorado
Samara,9251 Liberty Avenue,Cameron,Michigan
Elza,11078 Canary Palm,Bloomville,Alabama
Taniya,8731 Oak Hill Road,Oakwood,West Virginia
Hoy,3868 California Avenue,San Juan Capistrano,Alabama
Jaylynn,4602 Bellwether,Rochester,Maine
Monica,3292 S Providence Avenue,Sheldon,North Dakota
Jake,5349 Mine Mount Road,Berea,Kentucky
Garland,11236 Hadfield Avenue,Tuxedo,Indiana
Janae,1444 N Kentucky Avenue,Beaufort,Oregon
Lainey,15245 Coe Avenue,Briarcliff,Kansas
Annika,10679 Ryan Steven,Kershaw,Alabama
Watson,13421 Oak Haven Lane,Sodus,Pennsylvania
Laila,7912 Wistar Place,East Oakdale,Utah
Fernanda,12578 Belmont Terrace,Arroyo Gardens,Montana
Alex,6937 Cottage Road,De Peyster,Minnesota
Roscoe,6937 Cottage Road,Wellington,Maryland
Fernando,1436 Overlook Terrace,Meridian,Kentucky
Janiah,10309 Keener Avenue,Brownwood,Pennsylvania
Alec,6248 Richmond Place,Downey,Louisiana
Major,13692 Hazard Place,Cross Hill,Maine
Blas,11284 US Highway 322,Crawford,Rhode Island
Cristina,8024 Alton Street,Primera,Rhode Island
Arvid,12512 Westervelt Place,Decatur,West Virginia
Lyric,7494 Karen Court,Delano,Maine
Cleo,5742 Providence Court,San Francisco,Louisiana
Pablo,9330 Somerset Hills Court,Val Verde Park,Illinois
Jaqueline,7673 Leslie Ann,Davis,Connecticut
Melvin,14915 Half Moon Isle,Chateaugay,Kentucky
Kamora,4262 Lamar,Brockton,New Hampshire
Van,2247 Oberlin Avenue,Colton,Virginia
Leander,14360 Burnham Court,Richfield Springs,Louisiana
Unknown,1104 Alice Terrace,Anza,Iowa
Paityn,5922 Randy Petri,Mount Pleasant,Pennsylvania
Wayne,8427 Somerset Hills Court,Cedar Hill,Kentucky
Benjamine,2644 Memorial Avenue,Apple Valley,Montana
Moses,13641 McWilliams Place,East Alto Bonito,South Carolina
Minor,6150 Ash Street,Kingsbury,Maryland
Brown,1104 Royal Woods,Evans,Tennessee
Evie,10842 Mast Drive,Volney,Minnesota
Ella,4391 Sussex Road,Stokes Bridge-Cypress,Texas
Christiana,5806 Erico Avenue,Donna,Oregon
Buford,2147 Oakland Avenue,Rancho Calaveras,Kansas
Lesly,14308 Carlton Avenue,Strawn,South Dakota
Julious,13875 Olga Mapula,Scranton,Ohio
Amya,15047 Healy,Clarksville,Kansas
Otho,13922 Emerson Lane,Yorkville,New Mexico
Angus,7956 Daphne Drive,Clark Mills,Rhode Island
Ollie,4536 Pinehurst Court,Sonora,New Hampshire
Erwin,3617 Menard,French Gulch,Ohio
Sebastian,12618 Alline,Lyndonville,New Hampshire
Aubree,7381 Olive Street,Agua Dulce,South Dakota
Joshua,13044 Fairview Avenue,Pembroke,Vermont
Yareli,1801 Oriental Avenue,Fargo-Odell,Florida
Noah,8216 Paseo Real,Kamey-Six Mile,Nevada
Carly,15216 Edgar Degas,Malden,Delaware
Barnett,14490 Great Spirit,Caldwell,Missouri
Kiley,10215 Kent Drive,Homestead Valley,Indiana
Tobe,1774 Zabriskie Street,Westfield,Arkansas
Roderick,1102 Elm Court,Leesburg-Newsome,Missouri
Carla,2772 Churchill Drive,Waverly,Alaska
Darrell,9262 Country Club Boulevard,Fort Davis,New Hampshire
Fiona,9233 Colden Street,San Geronimo,West Virginia
Meyer,2108 13th Street,Santa Rosa,West Virginia
Parley,11914 Repetto Avenue,Death Valley,Arizona
Willow,10268 Rolling Peaks Way,New Albion,Michigan
Jocelynn,7752 Orchard Hill Road,Perrin,Missouri
Jessee,2620 Fairmount Terrace,Junius,New Mexico
Denver,14158 Sherman Place,Atlantic Beach,Arkansas
Jaylah,5978 Bodyes Row,Kirksey,New Jersey
Hilliard,12294 Desert Rain,Westworth Village,Illinois
Budd,6243 17th Street,San Antonio,Wyoming
Sylvia,9035 Paducah,Aubrey,North Dakota
Arlie,15028 Esther Lama,Somerset,Nebraska
Alana,10611 Roosevelt Avenue,Inwood,Wisconsin
Giovanna,4303 Louisa Street,Childress,Indiana
Crockett,8470 John F Kennedy Boulevard,Point Arena,Utah
Mariyah,49 Eton Row,Myrtletown,Pennsylvania
Rush,14638 Cushing Road,Cincinnati,Massachusetts
Susan,13756 Warwick Road,Bostonia,Iowa
Charlie,2816 Saint Francis,Mentz,Ohio
Sylvester,8336 Tom Ulozas,Killeen,Michigan
Dolph,15453 North Avenue,Broadalbin,Iowa
Arthur,9358 Giordana Avenue,Rathbone,Arkansas
Archer,4287 Taylor Avenue,Colton,Mississippi
Amos,13284 Milicent Avenue,Wagener,Ohio
Spencer,972 Ashwood Terrace,Salineno,Alabama
Nina,4050 Maxwell Avenue,Harleton,Texas
Clark,9863 Enos Place,El Lago,New York
Clare,5687 Brookdale Road,Theresa,Virginia
Justine,8406 Clinton Avenue,Chula Vista,Alabama
Clara,3393 Rebel,Cockrell Hill,Indiana
Tommie,5806 Erico Avenue,North Collins,Wisconsin
Gabriella,12710 Arsdale Terrace,Lancaster,Alaska
Enos,13185 Dolph Quijano,Hartwick,Ohio
Silas,5075 Clarkson Avenue,Midway South,Florida
Jared,1459 Chapel Avenue,Doyle,Colorado
Forrest,12399 Cannon Forge,Daisetta,Georgia
Finis,7818 Pineview Avenue,Collinsville,Hawaii
Victor,12108 Park Place,Burke,Washington
Clarke,53 Wong,Springwater Hamlet,Louisiana
Richmond,7089 14th Street,Spring Valley,Iowa
Guadalupe,9536 Steelmanville Road,Oshkosh,Nevada
Tom,730 Mark Drive,Creedmoor,Tennessee
Eliseo,2451 Timber Rock Trail,Nassau Bay,North Carolina
Lacey,4549 Wine Street,Brookhaven,Wyoming
Columbus,13165 Pine Avenue,Sammamish,Nebraska
Cora,12881 Lake Huron,Mountain View Acres,Wyoming
Katelyn,3289 Finley Avenue,Cold Springs,Colorado
Tobias,4568 Short Avenue,Stanford,North Dakota
Fritz,13561 Biscayne Boulevard,Hitchcock,Nevada
Hyrum,4983 Silver Lake,Chula Vista,Tennessee
Piper,7688 Country Club Drive,Meredith,Tennessee
Kennedy,6198 Dock Lane,Cashion Community,Alabama
Annalise,4498 Seabreeze Avenue,Binghamton,Mississippi
Lucien,14277 Hunter Hill,Rapid City,Michigan
Erica,2620 Minute Arms Road,Ransomville,Wyoming
Wyatt,13382 Amstater,Southeast Harris,South Dakota
Mahlon,11436 Villanova Court,Troy,Kansas
Roger,12771 Connecticut Avenue,East Hampton North,Oregon
Kennedi,14879 Little John Court,Moreau,Washington
Aden,1544 Belmont Avenue,Frazier Park,Montana
Oral,938 Shell Lane,Lake Almanor Peninsula,Iowa
Oran,12035 Clifton Terrace,Fullerton,Wisconsin
Sheila,10660 Brunswick Avenue,Bonham,Georgia
Wilford,92 London Court,Henderson,Idaho
Aylin,11036 Ridge Drive,Atwater,South Carolina
Alena,3242 Snow Fox Road,Laytonville,Alabama
Tiffany,13861 Gifford Avenue,Chino,Connecticut
Talia,1500 Cross Avenue,Bristol,Maine
Byron,11154 Brentwood Road,Davenport,Tennessee
Kaylah,13017 Greenbriar Drive,East Sonora-Phoenix Lake,West Virginia
Hartwell,9468 Regina Street,Pacific Grove,Indiana
Manly,13542 Kerlyn Court,Poth,Georgia
Elyse,2772 Churchill Drive,Anaheim,Alabama
Wade,2315 Bayview Avenue,Lorenzo,Ohio
Makenna,3087 S Belmont Avenue,Aptos,Arizona
Denton,9844 Nasa,Paloma Creek,Pennsylvania
Nora,1157 Meredith Court,Glendale,Louisiana
Katelynn,13241 Monroe Avenue,Dobbs Ferry,Pennsylvania
Coleman,14872 Morris Street,Titusville,New Hampshire
Paisley,14308 Carlton Avenue,Portola,Wisconsin
Raymond,2462 Reed Avenue,Rio Linda,Rhode Island
Janelle,5037 Byron Avenue,Loyola,Rhode Island
Stacy,13501 Longfellow Avenue,Kortright,Idaho
Aaliyah,14308 Carlton Avenue,Knippa,Arkansas
Amira,13637 Fields Lane,Middleville,Oregon
Aileen,4575 Nesbitt Avenue,Cypress,Indiana
Ishmael,24 Mark Avenue,Pasadena,Kansas
Jalyn,14905 Superior Road,San Carlos,Mississippi
Don,15453 Dick Lotz,Fort Hood,Georgia
Emil,2369 New Gretna Avenue,Laguna Beach,Idaho
Doc,11496 Court House Place,Los Indios,Kentucky
Daisy,6813 Crown Woods,Menands,Arkansas
Kelly,9933 2nd Street,Westdale,New York
Lisa,15195 Constellation Place,De Leon,Missouri
Maleah,7956 Daphne Drive,Ava,Delaware
Briana,8594 Chilton Place,Foothill Ranch,Wyoming
Dow,3019 Beacon Hill Drive,La Paloma-Lost Creek,Idaho
Sophia,9845 Ability,Rockville,Virginia
Chalmer,10658 Kilsyth Road,Lake Colorado City,Georgia
Alayna,7784 Creston Avenue,Italy,North Carolina
Logan,4277 5th Street,Running Springs,New Mexico
Alphonso,1279 Hemlock Road,Shell Ridge,North Carolina
Elaine,1356 Rider Avenue,Buttonwillow,North Dakota
Truman,14180 Intrepid Court,Littlefield,Oregon
Alphonse,42 S Pearl Street,North,Massachusetts
Herschel,9716 Chester Street,Kaufman,Delaware
Lana,15395 Patricia Court,Normal,Vermont
Lyman,2745 Desert Rain,Hillsboro,South Dakota
Johnathan,1494 Nesting,Lamont,Ohio
Dixon,10660 Brunswick Avenue,Hooks,Massachusetts
Maeve,11287 Eagon Avenue,Redwood City,New Mexico
Leia,1104 Alice Terrace,Goodrich,Alabama
Abbie,10846 Wildwood Terrace,North Charleston,Washington
Benjamin,15196 Ted Houghton,Levittown,Indiana
Tomas,3978 Chilton Hall,Dickinson,Rhode Island
Nichole,10968 Academy Road,Bridgeport,Georgia
Delilah,416 Gurd Avenue,Lott,Hawaii
Llewellyn,11234 Hoover Place,Beekmantown,Alaska
Greta,3224 Coral Gate,Grenada,Delaware
Tamia,8384 Onrtario Avenue,Simpsonville,Georgia
Elijah,4995 Burnet Street,Peabody,Texas
Jayden,481 S Myrtle Street,Jefferson Valley-Yorktown,Utah
Delia,11187 Sal-Laf Court,Weldon,New Mexico
Briley,14972 Headley Terrace,Conway,Oklahoma
Michael,11800 Crown Court,Lefors,Wisconsin
Seward,14071 Dehart Place,Howard,Mississippi
Rafael,8538 Banner Run,Groesbeck,Alaska
Curley,15369 Bashford Avenue,Pharr,Michigan
Elliot,7048 Belmont Drive,Ganado,Idaho
Savannah,7231 Flora Street,Lone Oak,New Mexico
Laci,866 Brinkerhoff Street,Northwest Rockwall,New Hampshire
Newton,10295 Lehigh Place,Erie,Wisconsin
Oswald,5525 Saul Kleinfeld,West Covina,Arkansas
Lacy,2405 Prior Street,Kendleton,Oregon
Tamara,8638 Gary Court,Italy,Maine
Ray,3292 S Providence Avenue,Landsford,Illinois
Jacey,7988 Sylvania Avenue,Berkshire,Georgia
Rose,66 Mountain Lane,South Monrovia Island,Delaware
Talmage,5639 Holly Street,Oakwood,Nevada
Rosa,6308 Flip Wilson Court,Madera Acres,Maryland
Jefferson,10359 Funston,Irondequoit,Tennessee
Kenzie,14262 la Mesa Court,Promised Land,New Hampshire
Granville,5385 Stegman Street,Mattydale,New Hampshire
Danica,1958 Fox Hill Lane,Herkimer,Colorado
Cadence,9358 Giordana Avenue,Perezville,Maine
Ross,4043 Susan Place,Las Lomitas,Pennsylvania
Weldon,15372 Brian Allin,Mendocino,Arkansas
Skyla,13463 Dean Martin,Schaumburg,Iowa
Everett,1909 Braun Terrace,Mayfield,California
Samuel,4646 Dos Reyes,Millbrae,Wyoming
Mira,14985 Berkshire Road,Cheyenne,Minnesota
Desiree,15183 Desert Quail,Arlington,North Dakota
Zaniyah,4191 Steelmans Lane,Plymouth,Pennsylvania
Katrina,13922 Emerson Lane,Woonsocket,Iowa
Raelynn,4940 Beach Front,Fair Oaks,Maryland
Mareli,2404 Clover Terrace,Delft,South Dakota
Juluis,5071 Oakwood Terrace,Hobart,Wisconsin
Alford,5652 Heggen Avenue,Granite Shoals,New Hampshire
Elzie,14562 S Columbia Avenue,Morgan Farm Area,Idaho
Maude,4775 Kingsley Drive,Portola Valley,Minnesota
Marely,7494 Karen Court,Fairforest,Oklahoma
Chana,4413 Mystic Drive,Cato,Minnesota
Lola,12006 Jackson,Dunsmuir,California
Rebekah,3306 Rockport Drive,Poteet,North Dakota
Evans,15112 Bessemer,Elyria,Connecticut
Josephine,13179 N Riverside Drive,South Bay Cities,Maine
Ed,14326 Nicole Court,Herkimer,Wisconsin
Lonie,14703 Thorobred Road,Nedrow,Oregon
Simone,11981 Kilsyth Road,Parma,Oregon
Katlyn,5171 Park Place,Weedsport,Kansas
Zariah,1102 Elm Court,Tuckahoe,Maine
Cyril,10647 Leland Place,Glendora,New Hampshire
Reese,407 Oakview Drive W,Eureka Mill,Nebraska
Hugo,6581 Donner Road,South Point,Wisconsin
Hugh,414 Cynthia Farah,Westover Hills,Mississippi
Axel,14772 US Highway 202,Blue Springs,Ohio
Gilbert,9379 Timberwood Drive,Pelham,Missouri
Isham,4602 Bellwether,Coronado,North Carolina
Genesis,11507 S Columbia Avenue,Rye Brook,Rhode Island
Emilie,2580 St John Place,Richmond,Montana
Kaley,3696 Chase Road,Central,Wyoming
Jaylyn,2651 Bayview Avenue,Angleton,California
Jeremiah,6244 Nesting,Morristown,Maryland
Meghan,15447 Inverness Drive,Post,Mississippi
Carmen,5278 Trey Burton,Hamptonburgh,Colorado
Hana,15223 Borinsky Lane,Roy,Iowa
Fayette,5658 Virginia Terrace,Alden,Missouri
Pleasant,2773 Hemlock Avenue,Pine Hills,Alaska
Larry,14249 Michael Smith,Ravena,Maine
Emmet,1722 Folklore,Tule Lake,Kansas
Rollie,10565 Otter Lane,Thousand Oaks,Montana
Paola,2901 Boyle Place,Pawling,New Hampshire
Rollin,1261 Tom Shaw,Deerfield Beach,Colorado
Selene,1857 S Illinois Avenue,Cutler,Vermont
Hervey,13308 Langley Avenue,Prunedale,South Dakota
Malia,14999 del Mar Court,Greenlawn,New Jersey
Ansley,2529 Custer Avenue,Lake Don Pedro,Arizona
Selena,12523 N Bellevue Avenue,Van Wyck,South Carolina
Asbury,13059 Kensington Terrace,Sierra City,Missouri
Shiloh,12552 Grandview Avenue,Richmond,Ohio
Elise,4525 Tysley Street,Ann Arbor,Ohio
Cecil,3013 Dorset Avenue,Nome,Arkansas
Oliver,5728 Virginia Avenue,San Carlos,Tennessee
Douglas,8231 Woodside Road,Belton,Texas
Kimberly,10720 Bobwhite Road,Ames,Alaska
Marisol,8392 Sumner Avenue,La Presa,Washington
Haylie,7519 Larry Mize,Leeds,Delaware
Albertus,4621 Country Spruce Lane,Yonkers,Missouri
Jordin,1104 Alice Terrace,Palo Alto,Alaska
Justin,11127 Greenbriar Drive,Victoria,Vermont
Allyson,7863 Magnolia Avenue,Middlebury,Oregon
Abigayle,13901 Lamar,Bostonia,Tennessee
Hannah,3399 Valor,Honeoye Falls,North Carolina
Adeline,934 Copper Gate,Collierville,Idaho
Price,14777 W Shelton Terrace,Cross Mountain,Alaska
Vernie,3318 Dick Lotz,North Coastal,Kentucky
Virginia,730 Mark Drive,Mount Vernon,New York
Addie,10376 Old Wood Road,Burnsville,Arizona
Kit,11268 Sea View,Conesus Hamlet,New York
Xiomara,5592 Turnpike Road,Davenport,New Jersey
Ryann,5776 William Street,Rialto,Kansas
Galilea,1745 Heckman Drive,Moira,Florida
Alpha,1500 Cross Avenue,Lake Placid,Michigan
Leopold,3491 Rushwood Drive,Walhalla,North Dakota
Eligah,15017 Meadowlark Lane,Thornton,Iowa
Lafayette,13668 Williard Place,Alpharetta,West Virginia
Nathalie,9359 Smith Avenue,Brocton,New Hampshire
Henery,6077 Grams Avenue,Uvalde Estates,Missouri
Aliya,4483 Luis Gomez,Celoron,Iowa
Jessica,2925 Gatewood Road,Rapids,Iowa
Zeb,12771 Connecticut Avenue,Norwood,Connecticut
Amaris,4050 Maxwell Avenue,Santa Cruz,Maryland
Augustine,5277 S Tennessee Avenue,Hudson,Maryland
Fredrick,8312 Harvard Road,Margaretville,Maine
Carolina,5230 Kirkman Place,La Sara,Florida
Makaila,8024 Alton Street,Holliday,California
Gabrielle,14158 Sherman Place,Wilton,Wisconsin
Juliet,14755 Mary Alice,Newfield,Texas
Winfred,5797 Gales Court,Study Butte-Terlingua,New Jersey
Hal,8889 S Maine Avenue,Edna-Cordele,Arkansas
Norris,15138 Saint Abraham,Pontiac,New Mexico
Karla,3502 Young Avenue,Clinton,Montana
Erving,2108 13th Street,Central,Maryland
Karly,8638 Gary Court,Southwest Bell,New Jersey
Garret,5230 Kirkman Place,Eggertsville,Kentucky
Adyson,14410 Pebble Hills,Sabine,New Jersey
Lilly,5571 Perrine Avenue,Aiken,Pennsylvania
Henderson,3192 Debra Court,Powderville,North Dakota
Kathy,10925 Nepawin Lane,Laurel Hollow,Alaska
Freeman,325 Floral Avenue N,Shepherd-Evergreen,Rhode Island
Halbert,10215 Kent Drive,Downey,Oregon
Theodore,5627 Queen Court,Avilla Beach,Kansas
Wilfred,5273 Edward Hart Drive,Lockwood,Nebraska
Olivia,3227 Ariff Avenue,Kelly Ridge,Wisconsin
Libby,15373 Senate Avenue,Abilene,West Virginia
Khloe,8231 Woodside Road,Daly City,New Hampshire
Bedford,11072 Princeton Road,Winnsboro Mills,New Hampshire
Crystal,2904 Nixon Road,Yemassee,Virginia
Deja,3163 Corbin Avenue,Sulphur Springs,Indiana
Hosteen,8975 Charles Court,LaCoste,Pennsylvania
Janice,10391 US Highway 1,Knippa,North Carolina
Dayami,12617 Sleepy Hollow Lane,Morgan Mill-Bluff Dale,Michigan
Clarissa,4238 Bell Tower,Palm Valley,Kansas
Esequiel,4666 Rudder,Los Olivos,Maine
Carley,14493 9th Street,Fonda,Vermont
Marion,10611 Roosevelt Avenue,Converse,Virginia
Dalton,884 Voorhees Street,Fishers Island,Nebraska
Carlee,7374 Amber Court,Avilla Beach,Montana
Peyton,15119 Yale Avenue,Wharton,Minnesota
Delmar,11078 Canary Palm,Edwards,Pennsylvania
Karlee,2140 Wooding Terrace,Coronita,Iowa
Adrienne,45 Fernwood Avenue,Humboldt Hill,Florida
Myla,2773 Sea Palm,Rosemont,Louisiana
Verne,11051 Country Club Lane,Newark,Idaho
Anabelle,778 Dutch la,South Congaree,Utah
Orren,103 Saint Clare,Camp Pendleton North,Montana
Cheyenne,7852 Tom Ulozas,Robbins,Arkansas
Serenity,12843 Castle Gate,Huntington Bay,New Mexico
Karley,5387 English Lane,Kenedy,Colorado
Arther,6769 Azteca,Bergen,New York
Jarrett,14040 Mountain Lane,Sullivan's Island,New York
Alexus,4154 Woodruff Lane,East Bloomfield,Ohio
Blair,7544 Ambar Place,Huntington,Kansas
Park,9544 Quaker Way,Red Hook,Missouri
Madelynn,2591 Crest Drive,Brewster Hill,South Dakota
Ashly,6179 Southfield Drive,Ilion,Illinois
Osborne,13485 Bademann Place,St. Regis Falls,Wyoming
Belinda,4582 Court House Place,Hargill,Vermont
Terry,10499 Lees Lane,Olmito and Olmito,South Carolina
Isaiah,4232 Cardigan,Iola,Delaware
King,5338 James Guines,Bloomington,Florida
Micah,1276 S Albany Avenue,Apple Springs,Ohio
Isabelle,13840 Williams Avenue,Pittsburgh,Pennsylvania
Amaya,11469 Westgate Road,Tarzan-Lenorah,Colorado
Obe,2229 Oberlin Avenue,Arlington Heights,Massachusetts
Archibald,14956 Seabreeze Avenue,Winston-Salem,Kentucky
Belen,1040 Anchorage Court,Dothan,Idaho
Annie,12365 S Park Terrace,Wappinger,Pennsylvania
Zara,8131 Eagle Drive,Rosamond,Hawaii
Savana,4912 Paseo Festivo,Boys Ranch,Connecticut
Dana,5338 James Guines,Lancaster Mill,Texas
Harl,14850 Ingall Street,Alton,Tennessee
Neil,2158 Morning Glory Court,Eastchester,New York
Meadow,11191 Crossan Avenue,Halesite,North Dakota
Yee,6940 Chime Tower,Eden Prairie,Oklahoma
Elisa,1609 Astoria Place,El Rancho Vela,Louisiana
Steve,5446 Denk Court,York,Virginia
Chin,3212 King Street,Timpson,New Jersey
Todd,11439 Pollock Avenue,Inglewood,Wyoming
Almer,1584 Tenaha,Cross Mountain,West Virginia
Cassandra,10327 Dover Avenue,West Puente Valley,North Carolina
Graham,4568 Short Avenue,Hickory Grove,New York
Junius,4251 Looker Street,West Orange,Alaska
Collie,2534 Nicholas Avenue,D'Hanis,North Carolina
Sidney,10060 Bonnie Drive,Cameron,New Jersey
Willis,11439 Pollock Avenue,Delano,Indiana
Miah,14273 Paseo Festivo,Attleboro,Rhode Island
Laylah,13374 Hampton Place,Billington Heights,Vermont
Clyde,11490 Dogwood Avenue,Clarksburg,Pennsylvania
Frida,3212 King Street,Salinas,Pennsylvania
Willie,12994 Wine Street,Wesley Hills,Illinois
Neveah,7829 Sumner Avenue,Rio Grande City,Arizona
Mose,6937 Cottage Road,Cove,Alabama
Jacquelyn,2679 Sherwood Drive,Mount Selman,Minnesota
Mariana,6399 Stegman Pkwy,Yorktown Heights,Connecticut
Wendell,10157 Village Lane,Monte Alto,Kansas
Emmy,1986 US Highway 1,Stratford,Massachusetts
Ayana,15348 Boxwood Court,Phoenix,Alabama
Macy,13973 Rosa Guerrero,East Bernard,New Mexico
Caitlin,5125 Henry Street,Midland,Colorado
Carl,1412 Rising Sun,Southside Place,Texas
Ashlyn,8562 Cary Court,Brady,Louisiana
Watt,12944 Whitewater Lane,Queen Creek,Mississippi
Warner,3238 Bergen Square,Santa Clara,Georgia
Mack,4032 Ravenwood Drive,Ross,Delaware
Maci,15272 Milton Avenue,Port Royal,Pennsylvania
Areli,10767 Snow Fall,Rensselaer,Kentucky
Ballard,2227 Walton Avenue,Fruitvale,Colorado
Donna,8228 Horace J Bryant Jr Drive,Yakima,Wisconsin
Arely,2035 Rio Violento,Silver Lakes,Kansas
Sumner,14368 Shackamaxon Drive,West Pelzer,Texas
Michel,2816 Saint Francis,Garden City Park,Ohio
Pleas,5142 Porter Terrace,Clarksville,Louisiana
Ola,6567 Dartmouth Terrace,Woodbridge,Nevada
Ole,8698 Lorenzo Ruiz,Mirando City,Colorado
Rachel,9962 Edgewood Road,Southeast,Missouri
Garner,12620 Plumed Quail,Dixon Lane-Meadow Creek,Ohio
Alfonso,11914 Repetto Avenue,South Coast,Mississippi
Angie,9379 Timberwood Drive,Highland Park,Wyoming
Shannon,1722 Folklore,New Hempstead,Michigan
Cynthia,4602 Bellwether,Westbrook,Nevada
Rafe,12802 Chisholm Pass,Woodville,Wisconsin
Daniella,4955 College Drive,Mechanicstown,South Dakota
Tim,14084 Stadium Court,Leon Valley,West Virginia
Tanya,5075 Clarkson Avenue,Niagara Falls,Tennessee
Danielle,6442 Superior Road,Lenexa,New York
Ira,10289 Richman Avenue,Hartley,New York
Elliott,8558 Morris Pesin Drive,Falcon Lake Estates,Rhode Island
Tia,12757 Larry Wood,Kirbyville,Colorado
Abbigail,10174 Winthrop Place,Valhalla,Maine
Esther,3471 Barnard Avenue,Shell Point,Nebraska
Shayla,2416 Canal Street,Portola,Delaware
Luke,6147 Waterway Avenue,Bartlett,Georgia
Deforest,7625 Martin Street,Huntington Station,Vermont
Thalia,12996 Shearer Avenue,Saugerties South,Wisconsin
Tatyana,5922 Randy Petri,Concord,Arizona
Frederic,15071 Beacon Hill Drive,Stanford,Massachusetts
Riya,10904 Saint Thomas Drive,Boykin,Florida
Alisha,4602 Bellwether,Amherst,Idaho
Anya,4416 Oak Crest,Colchester,New Jersey
Selina,8617 Nancy Mcdonald,Arlington,Wyoming
Yuridia,13501 Longfellow Avenue,Compton,Alabama
Coy,3951 Brian Allin,Coarsegold,Mississippi
Kiersten,3192 Debra Court,Bend,Mississippi
Raleigh,14200 Fairview Drive,Montecito,Nevada
Nancy,2869 Malaron Circle,Rendon,Missouri
Jolie,9425 Red Cloud,Sand Springs,Massachusetts
Archie,8500 Westminster Avenue,Mount Carmel,New Jersey
Carter,15463 Jean Place,Chalfant,Georgia
Akira,1356 Rider Avenue,Alvord,Montana
Miller,14647 Brook Street,El Paso,Maryland
Sol,2346 Grand Street,Quinby,Indiana
Iris,11507 S Columbia Avenue,Salisbury Mills,South Carolina
Devyn,4238 Bell Tower,Northwest Grayson,Minnesota
Kara,1701 Covert Avenue,McLean,Nebraska
Dennis,10200 Skipper,Los Altos Hills,Ohio
Karl,9106 Sugar Bay,Fall River,New York
Mylie,5725 Throwbridge Drive,South Lake Tahoe,Kansas
Nia,5343 Country Club Boulevard,Siesta Shores,Minnesota
Alisson,5132 Burkley Place,South Gate,Colorado
Jasmine,13041 Montague Place,Brookville,California
Shaylee,7681 Carriage Drive,Odessa,Indiana
Bernard,3894 Westminister Place,Silver Lakes,Vermont
Tyler,10604 N Fleet Street,Spring Valley,New Mexico
Pamela,13312 Parkview Drive,Port Neches,Louisiana
Anabel,10379 Belmont Terrace,China Spring,Alabama
Jaelyn,3880 Beverly Road,Lake Forest,Louisiana
Kamryn,11087 Bobby Jones,Spencerport,Ohio
Lucia,643 Hawthorne Street,Powderly,New York
Brandi,12642 Sextant Drive,Niederwald,Arizona
Samantha,7210 Cole Avenue,Niagara Falls,Ohio
Doctor,4242 Whitewood Road,Cayuga,West Virginia
Ariel,10578 Baron,Rice,New Hampshire
Brandy,4354 Pueblo Seguro,Orwell,Oregon
Christopher,12443 Ravine Court,Nord,Arizona
Carissa,9364 Van Buren Place,Groesbeck,Hawaii
Commodore,124 Hastings Terrace,Coconut Creek,North Dakota
Marina,10616 Pueblo Seguro,West,Missouri
Handy,13014 Floyd Terrace,Jewett,Tennessee
Litzy,7033 Doremus Place,Day Valley,North Carolina
Alto,4623 N Brighton Avenue,Piru,Colorado
Manford,7304 Sheffield Street,Larchmont,California
Adelbert,10391 US Highway 1,Spring Valley,South Carolina
Thos,14249 Astronaut,Carpinteria Valley,California
Harley,3560 Shoreline Road,University Gardens,Texas
Billy,3475 Lucille Drive,Oceanside,Montana
Alyson,1544 Gus Grissom,Hamilton,Iowa
Madeleine,11649 Wales Avenue,Parker,Oklahoma
Mallory,3680 Wythe Avenue,San Jose,Wyoming
Alize,13047 Wade Street,Barstow,West Virginia
Alexandria,6564 Scotchwood Glen,Madrid,Tennessee
Aliza,11991 Nottingham Way,DeKalb Junction,North Dakota
Kirk,9 Beresford Drive,Northport,Arkansas
Bradley,2925 Gatewood Road,Red Mountain-Trona,Massachusetts
Dakota,11721 N Sovereign Avenue,West Sayville,Missouri
Kenna,10679 Ryan Steven,Wasco,California
Amber,14879 Little John Court,Hickory,Minnesota
Hyman,11747 West Avenue,Pawtucket,South Dakota
Dania,393 Robinson Avenue,Star Harbor,New Hampshire
Andy,10767 Snow Fall,Fort Edward,New Hampshire
Siena,8655 Moessner Avenue,Oasis,Nevada
Friend,9748 Country Hickory Lane,LaFayette,California
Merritt,1909 Braun Terrace,Parker,Kentucky
Jamiya,10357 Meadow Street,Clint,Montana
Frank,4073 Essex Drive,South Nyack,Wyoming
Wiley,5651 Donner Road,Stamford,Missouri
Izabella,3306 Rockport Drive,Oglesby,New Mexico
Furman,6784 Suburbia Drive,Cambridge,Idaho
Odie,7341 Hamilton Terrace,Startex,Utah
Malaya,12132 Susan Edge,Weir,Massachusetts
Brisa,4050 Maxwell Avenue,San Bernardino,Colorado
Benton,13312 Parkview Drive,Brandon,South Carolina
Bill,12070 Bert Green,Nanuet,Nebraska
Barton,15112 Bessemer,Warsaw,Rhode Island
Davie,2702 Anndover Gardens,Mineola,Connecticut
Antonio,5766 Troy Street,Haslet,Wisconsin
Elsie,3561 Colonial Arms Road,Malta,Minnesota
Davis,2124 Mays Lndg,Big Flats Airport,Vermont
Imani,13256 Francyne Way,Burnsville,Louisiana
Bob,14051 Beacon Hill Drive,Barrington,Texas
Payton,14085 Truman Avenue,Stanton,Oregon
Ezra,6124 Hadfield Avenue,Palm Springs,Washington
Taylor,3212 King Street,Batesburg-Leesville,Pennsylvania
Bart,13550 Hawthorne Avenue,Bolton,Connecticut
Glenn,11800 Crown Court,Duncanville,Colorado
Alvie,5087 Brookside Court,Joplin,Louisiana
Jade,3696 Chase Road,Angwin,Minnesota
Alvia,9599 Diego Rivera,Atwater,Louisiana
Roe,12288 Paulusen Court,South Glens Falls,Oklahoma
Jada,4251 Rosehill Place,Wantagh,Alaska
Roy,10751 Stone Street,Wichita Falls,Indiana
Dorothy,9699 Romy Ledesma,Weimar,Vermont
Alvis,15326 Wind,Newark,California
Katie,10861 Davison Avenue,Reliez Valley,Hawaii
Eli,10934 Alpine Avenue,Cherryland,New York
Anastacio,7231 Senger Place,Salinas,Virginia
Elmer,4539 Stanley Terrace,Petersburg,Michigan
Young,8809 Winners Court,Manlius,Wyoming
Rylee,2593 Island Lane,West Haverstraw,Massachusetts
Ely,2620 Fairmount Terrace,Virgil,Oregon
Jazlene,2404 Clover Terrace,Tierra Buena,Arkansas
Ruth,10850 Gus Grissom,Hamer,Rhode Island
Redden,8268 Wainwright Street,Monterey,Vermont
Paige,11410 Swans Mill Lane,Mather,Colorado
Norman,14273 Paseo Festivo,Ballston Spa,Oregon
Rosemary,8396 Jonathan Smith Road,Odessa,West Virginia
Makena,2651 Bayview Avenue,Santa Maria,Kentucky
Obie,15058 Winchester Drive,Monte Alto,Connecticut
Anthony,9451 Billet Hill,Irving,North Dakota
Jazlyn,14638 Morris Pesin Drive,North Lynbrook,California
Gerald,15413 Ristaino Drive,Charlottesville,South Dakota
Katharine,2396 Eve Drive,Stanton,Mississippi
Evert,6761 Braun Terrace,Sheridan,Arkansas
Lailah,3619 Folklore,Sunnyvale,Louisiana
Esperanza,7033 Doremus Place,Dryden,Florida
Hurley,1606 Crystal Lake Drive,Georgetown,Maine
Nola,13065 Connecticut Road,Mount Kisco,Mississippi
Sherlyn,560 Tiffany Lane,East Fishkill,Oklahoma
Tommy,14249 Michael Smith,Goshen,Wyoming
Ayanna,7219 Roberta Avenue,Macdona,Arizona
Franklin,2315 Bayview Avenue,Vista,New York
Adrian,13211 Chito Samaniego,Bleecker,Alaska
Ashton,12800 Proud Eagle,Chicago,Idaho
Austin,5776 William Street,Lake Sherwood,Nevada
Mart,14730 Lincoln Street,Reno,California
Dixie,12587 Griffith Street,Santa,New Mexico
Jeff,5025 Frank Street,Bayview,Florida
Preston,10730 Orchard Hill Road,Warren City,West Virginia
Bennett,12054 Blazon Gold,Laguna Park,North Carolina
Lilah,13975 Boylan Terrace,Chesterfield,Iowa
Murray,12329 Saint Laurence,Garden Acres,West Virginia
Helena,10983 Braun Terrace,Nashua,Oregon
Bria,7273 Iorio Street,Parksdale,Ohio
Florence,11049 Seabreeze Avenue,Apalachin,California
Hubbard,7170 Highland Avenue,Annapolis,Idaho
Gracie,10379 Belmont Terrace,Wildwood,Louisiana
Eliga,3312 River Drive,Great Bend,Michigan
Edward,5387 English Lane,Airmont,Missouri
Elige,9623 Spring House Road,Alto Bonito Heights,Delaware
Sierra,4242 Whitewood Road,Good Hope,Mississippi
Linda,4219 Yorktown Road,West Puente Valley,Maine
Ambers,4067 Rony Road,Lima,Indiana
Huey,14872 Morris Street,Montague,South Dakota
Curtis,4840 Dobbs Street,Cut and Shoot,Montana
Mat,10677 N Laclede Place,Smithville Flats,Nevada
Aleah,11176 Marmora Avenue,Sardis,Washington
Berton,13246 Tallowwood Road,Maypearl,Texas
Max,13452 Turner,Chesnee,Hawaii
Hazel,3035 Perry Lane,Grizzly Flats,Indiana
Mac,7818 Pineview Avenue,Clovis,Nevada
Eva,5955 Paseo Segovia,Harris Hill,Washington
Larkin,4983 Silver Lake,Kerens,Missouri
Mal,8984 Lily Road,Milam,Rhode Island
Iliana,14493 9th Street,Gray Court,Illinois
Isidore,10776 Niles Street,Middletown,Rhode Island
Stanford,11128 Senger Place,Hall,Alaska
Julius,3680 Wythe Avenue,Lake Don Pedro,Colorado
Maryjane,13676 Stillwell Road,Wilton,Washington
Cass,575 New Gretna Avenue,Rodman,Maine
Emmett,966 Johnston Avenue,Lake of the Woods,Massachusetts
Bee,8627 Alicia Chacon,Saginaw,Rhode Island
Rupert,2736 Sally Ray,Rose Hills,North Carolina
Ab,14288 Warner Avenue,Hilda,Maine
Edna,9582 Sassafras Court,Phoenix Lake,Delaware
Malcolm,12265 Hempson Avenue,Rosita South,Arkansas
Al,15402 Crownview Lane,Lexington-Fayette,Vermont
Danial,9330 Somerset Hills Court,Broadalbin,Utah
Ebbie,15399 Tom Bolt,Lincoln Village,Kentucky
Scott,3881 Bernius Court,Bell Canyon,Indiana
Emmitt,5833 Dubois Avenue,Roman Forest,Minnesota
Turner,10041 Bedford Drive,Rio Hondo,Colorado
Jaidyn,5530 Paddock Road,Lake Pleasant,Nebraska
Lonnie,9626 S Mount Airy Avenue,Lakeland Village,Maryland
Perla,14460 Cary Court,Moraida,Oregon
Harper,15195 Heather Lane,Pomona,Washington
Jim,8427 Somerset Hills Court,Lee Vining,Delaware
Karli,3490 Chelsea Court,Altmar,New Hampshire
Betsy,5833 Dubois Avenue,West Valley,North Dakota
Lara,3242 Snow Fox Road,Hillsborough,Kansas
Gia,2078 Aetna Street,Planada,Wyoming
Isla,687 Lake Tahoe,Pomona,Georgia
Roselyn,1908 Seabreeze Avenue,Pine Harbor,Tennessee
Kaiya,7678 Sextant Drive,Rankin,Washington
Angelina,7562 Carann Drive,Savona,Pennsylvania
Angeline,13916 Paulmier Place,Newton,North Carolina
Marvin,730 Mark Drive,Caldwell,West Virginia
Monique,13928 Wilshire Run,Van Alstyne,Montana
Alden,8437 Ann Street,Miami,Minnesota
Orla,3445 Lyon Court,Greer,Idaho
Candido,11690 Society Hill Drive N,Hartford,New Mexico
Orlo,8528 Seaside Avenue,Escondido,Idaho
Raegan,8889 S Maine Avenue,Northeast Rockwall,Pennsylvania
Savanna,3027 Van Gogh,Evanston,New Hampshire
Keyla,1829 Stockmeyer,Butler,Tennessee
Irvin,2372 Cindy Drive,Orlando,West Virginia
Cloe,5841 Henderson Street,McKinney Acres,Missouri
Titus,14772 US Highway 202,Valdosta,Wyoming
Harvy,15112 Bessemer,Lake Brownwood,Pennsylvania
Calvin,2871 Glendale Place,Chula Vista,Kansas
Hosea,12140 Morrison Avenue,Shaver Lake,Texas
Harve,4899 Revere Avenue,Pueblo Nuevo,New York
Charlotte,9667 Rocio,Altadena,Kansas
Estefani,8655 Moessner Avenue,East Glenville,Indiana
Maurice,9793 Tampa Terrace,Union City,Wisconsin
Kya,9060 Shearwater Ct W,Collierville,Pennsylvania
Skylar,8203 Alpine Way,Anderson,Kansas
Manning,11127 Greenbriar Drive,Zena,Oklahoma
Eldon,3138 Kempshall Place,Dalworthington Gardens,Arizona
Enoch,6564 Scotchwood Glen,New Hempstead,Delaware
Dahlia,11808 Lupe Rivera,Bellevue,Delaware
Orson,124 Hastings Terrace,South Farmingdale,Nevada
Howard,2332 Oak Place,Bridgewater,South Dakota
Gustave,6921 Bates Street,Manor,Arizona
Wilhelm,2188 Dean Terrace,Hornellsville,Vermont
Amiya,12381 Rosetta Place,West Tehama,Louisiana
Kianna,4602 Bellwether,Homeland,Illinois
Lexi,9696 W Side Avenue,Mart,Tennessee
Marisa,8562 Cary Court,Burbank,Oregon
Leyla,3617 Menard,Port Isabel,Colorado
Zion,1972 Cross Avenue,The,West Virginia
Janet,5592 Turnpike Road,Weymouth Town,Washington
Tayler,14814 Church Street,Ovilla,Alaska
Kathryn,4481 Maddaket,Los Angeles,Indiana
Kassidy,827 Soverrign Court,West Point,Idaho
Sheyla,5025 Frank Street,Westhaven-Moonstone,New York
Johnnie,15028 Esther Lama,Hideaway,Kansas
Kristin,1213 Jerry Lewis,Iron Horse,Alabama
Reed,10955 Ramsey Avenue,Penryn,New Hampshire
Randall,10721 Garden State Road,Montague,Delaware
America,9839 Edgar Road,Wheeler,New Jersey
Lina,12924 Sunrise Court,Aromas,New York
Ora,3723 Thompson Lane,Falcon Lake Estates,Wisconsin
Vance,5652 Heggen Avenue,Hillside Lake,Delaware
Cassius,6610 Grand Cayman,Jonesville,Alaska
Armani,15120 Poplar Avenue,Norfolk,California
Green,7703 Hartley Terrace,Eastchester,North Dakota
Kamila,12539 Marian Terrace,Turbeville,New Hampshire
Clay,8370 Iron Gate,Farmington,Tennessee
Alois,600 Woodruff Place,Hamlin,Massachusetts
Armand,6937 Cottage Road,Eastland,Rhode Island
Shyanne,11522 Marigold Circle,Benton,Colorado
Jennifer,1995 Swan Drive,Hesperia,Tennessee
Hardy,13990 Burke Pkwy,Bayonne,Delaware
Elisha,1835 Dubois Avenue,Lake Hughes,Nevada
Chester,3560 Shoreline Road,Fairmount,Oregon
Emory,7377 Mark Drive,Indian Springs,Michigan
Robert,14641 Crimson Crest,Snelling,Alaska
Nick,15044 Birch Street,Hudson Bend,Washington
Clovis,13672 Whitman Avenue,Walker,Maine
Lucian,4423 Italy Terrace,Machias,West Virginia
Daniela,9846 4th Avenue,Dalton,Arkansas
Kira,12689 Neck Lane,Aurora,Maine
Payten,8552 Rufus Brijalba,Longmont,New York
Tolbert,15221 Sunrise Circle,Milford,Utah
Dale,7377 Mark Drive,Saddle Rock,Connecticut
Lena,13963 Berry Lane,Davis,Delaware
Carina,13791 Buchanan Street,Fluvanna-Sharon Ridge,Utah
Stacey,14262 la Mesa Court,Mesa,Massachusetts
Mia,13017 Greenbriar Drive,Eldorado,Maryland
Katherine,15154 Devonshire Drive,North Highlands,Illinois
Rhiannon,15382 N Annapolis Avenue,Glen Head,Wisconsin
Taliyah,11256 N Laclede Place,Duncanville,Florida
Lane,14200 Fairview Drive,Laguna Beach,Illinois
Sampson,13791 Buchanan Street,Rome,Washington
Anika,4067 Rony Road,Harker Heights,Nevada
Gus,13810 Rutgers Lane,Garden Acres,Wisconsin
Claire,8216 Paseo Real,Hillsboro,Idaho
Sanai,845 Monmouth Street,Dexter,Hawaii
Guy,5625 Woodruff Avenue,New Chapel Hill,New Hampshire
Sanaa,8546 Fernwood Avenue,Pattersonville-Rotterdam Junction,Pennsylvania
Macey,6769 Azteca,Jim Ned,New Hampshire
Jazmine,5729 Brook Hollow Lane,Homeland,Arizona
Albion,4039 Bowen Avenue,Granger,Washington
Wilmer,14143 Jackson Terrace,Southampton,Michigan
Nicole,5484 Del Rio,Callender,Oregon
Maynard,11840 Jean Terrace,Paint Rock,Georgia
Michelle,4754 17th Street,Willsboro,Georgia
Kathleen,15007 Caldwell Place,Westhaven-Moonstone,North Carolina
Byrd,9380 Colden Street,Fenner,Wyoming
Cato,10150 Sunrise Avenue,Madisonville,Maryland
Nathalia,11986 Lawn Place,Batesburg-Leesville,Colorado
Brynn,14272 Lexington Place,Lysander,Nevada
Molly,12443 Ravine Court,Carmichael,Mississippi
Clayton,14168 Westminster Lane,Fremont,Indiana
Lionel,6796 Stecher Avenue,Waco,Mississippi
Nathan,5852 Seib Avenue,Jefferson City,Oregon
Philo,10750 Caspian Avenue,Clinton,New York
Joel,9653 Henry Phipps,Hurst,Arkansas
Emery,11603 Columbia Drive,Wurtsboro,Alaska
Alexis,15213 N Riverside Avenue,Perryton,West Virginia
Ingrid,893 Michelangelo,Horizon City,Idaho
Hence,14936 Saint Paul,Anchor Bay,Indiana
Alexia,6890 Peter Cooper,Gaston,Ohio
Milagros,6442 Briarcliff Drive,Port Hueneme,Mississippi
Madeline,2042 Laguna Drive,Rosita,Connecticut
Makayla,600 Woodruff Place,Lindsay,Indiana
Marcel,14045 Bay Avenue,Horseheads,Iowa
Aiyana,579 Avenue at Port Imperial Avenue,Bradbury,Connecticut
Elmore,9364 Surrey Road,Wando,Washington
Champ,45 Fernwood Avenue,West End,Louisiana
Mikayla,10051 Paulmier Place,McAllen,North Carolina
Regina,5953 Nathan Lane,Kings Point,Louisiana
Smith,2047 Wooster,Boling-Iago,Connecticut
Dudley,1438 Bayway Avenue,Lincoln,Montana
Cecelia,11811 Lake Charles,Nassau,Arizona
Ceylon,4334 Chelita,Goshen,Oregon
Evangeline,2728 Wesley Avenue,Denver City,Georgia
Hermann,11471 Elkhorn,San Carlos,Rhode Island
Brenna,1914 Savitt Place,Dentsville,Hawaii
Bird,10894 Walker Avenue,China Lake Acres,Texas
Stanton,15195 Constellation Place,Dayton,Connecticut
Cecilia,12083 Sylvania Avenue,Suffern,Wisconsin
Serena,3723 Thompson Lane,Hendersonville,Nevada
Abril,12329 Saint Laurence,Christoval,South Dakota
Livia,1279 Hemlock Road,North Lakeport,Minnesota
Brooks,5525 Blackberry Lane,Seymour Rural,Indiana
Jennie,2079 Pueblo Laguna,Pleasanton,Rhode Island
Brooke,814 Taft Lane,Shingletown,Utah
Luis,6201 Turner Place,Upper Nyack,Alabama
Matilda,12578 Belmont Terrace,Bismarck,Arizona
Haven,15263 Griffith Street,Prattsburgh,Rhode Island
Ashley,12578 Belmont Terrace,Valinda,Alabama
Cas,1072 William Street,Myrtle Beach,Oklahoma
Brooklynn,10088 17th Street,Sinclairville,Nebraska
Ottis,12512 Westervelt Place,Atlanta,Delaware
Cap,15118 Canale Drive,Gun Barrel City,Georgia
Herbert,2772 Churchill Drive,Hornbrook-Hilt,Nevada
Addyson,12132 Susan Edge,Van,Georgia
Paulina,13463 Dean Martin,Oro Valley,Alabama
Adam,14638 Morris Pesin Drive,Port Neches,Kentucky
Ossie,13312 Parkview Drive,Redwood City,Wisconsin
Cal,5729 Brook Hollow Lane,North Highlands,Mississippi
Ashlee,8546 Fernwood Avenue,Compton,California
Robin,3393 Rebel,East Hampton,New York
Karina,2834 Thelma Drive,Fillmore,Massachusetts
Summer,13085 Oakdale Road,Ukiah,Arizona
Sam,2774 Old Egg Harbor Road,Scurry,Ohio
Dillard,9864 Ditzel Farm Court,Lackland AFB,Alaska
Leticia,2109 Andrew Street,Moore,Maryland
Chanel,11507 Country Club Court,Alvarado,Illinois
Gary,14860 Timothy Drew,Hamilton,Montana
Cliff,7158 Martin L King Avenue,McCloud,Minnesota
Kate,6975 Morse Avenue,East Bell,Ohio
Garnett,12149 Jason Court,Valinda,Wyoming
Edson,12331 Academy Road,Longs,Nebraska
Bertrand,7270 N New Jersey Avenue,Markham,Oregon
Saige,10215 Kent Drive,Stewart Manor,New Jersey
Ada,13624 Elm Court,Walnut Creek,Georgia
Willard,13308 Langley Avenue,Harris Hill,Pennsylvania
Liberty,2260 Brighton Place,Glen Rose,New Mexico
Firman,3704 Coles Avenue,Rancho Palos Verdes,Louisiana
Harmony,8584 Aetna Street,Northeast Tarrant,Illinois
Wendy,11733 Lake Erie,Marshall,New Mexico
Dayana,6610 Grand Cayman,Larkspur,Georgia
Babe,1261 Tom Shaw,Burke,New Jersey
Adolph,12077 Esher Way,Cleveland Heights,New Jersey
Juliette,4909 Cobblestone Court,Hornellsville,Idaho
Vern,12064 W California Avenue,Kendleton,Montana
Mattie,5515 Ramapo Way,Peachtree Corners,Oregon
Miguel,1292 Pink Coral,Louise,Illinois
Alva,845 Monmouth Street,Truckee,Georgia
Ryan,2332 Oak Place,Fort Smith,Minnesota
Kinsley,4582 Court House Place,Scott,Hawaii
Ivey,14101 Cricket Drive,Broken Arrow,North Carolina
Owen,10383 Baron,Warren,Kansas
Jesus,10536 Blackberry Lane,Bell,Virginia
Maren,11800 Crown Court,Munday,North Carolina
Fredric,9661 Windsor Road,Exeter,Georgia
Eliana,8637 Linwood Place,Fairmead,Kansas
Jamie,1908 Seabreeze Avenue,Falcon Lake Estates,Texas
Jasmyn,12040 Red Fox,Lane,Minnesota
Ashleigh,4539 Stanley Terrace,Dunean,Missouri
Winfield,5239 Angelica,Burlingame,Massachusetts
Jabez,4397 Dutch la,Laurel Bay,North Dakota
Zaria,3783 Castle Gate,Jonestown,West Virginia
Saniya,13860 Ogden Street,Canaseraga,South Dakota
Alaina,4251 Looker Street,York Hamlet,Hawaii
Miriam,1609 Astoria Place,Kensington,Nebraska
Earnest,7126 Lexington Road,Ione,South Dakota
Yvette,2170 Blue Palm,Ames,Pennsylvania
Lincoln,942 Evergreen Drive,Maybrook,Maine
Volney,8987 S Jackson Avenue,Akron,Idaho
Meredith,14051 Beacon Hill Drive,Remsenburg-Speonk,Nevada
Chalmers,8731 Oak Hill Road,Yemassee,Ohio
Jaycee,5934 Birch Street,Edinburg,Nevada
Catalina,6632 Lake Ozarks,Dothan,Maine
Hamp,251 Glen Aire Drive,Kiantone,Texas
Wright,2834 Thelma Drive,Brocton,Maine
Caleb,1520 Uibel Avenue,Scottsdale,Arkansas
Ellison,7235 Hobart Avenue,Aurora,Texas
Fletcher,7231 Flora Street,Maud,Wisconsin
Casper,1901 Creek Road,Great Neck Plaza,Illinois
Pinkney,6399 Stegman Pkwy,Wethersfield,Utah
Burton,2401 Congress Street,Macon-Bibb County,Wisconsin
Peter,11840 Jean Terrace,Farmingville,Ohio
Lucious,5620 Tower Wall,Baiting Hollow,South Dakota
Pat,4143 Kent Drive,Greece,Iowa
Anabella,9623 Spring House Road,Folsom,Alaska
Richard,5525 Blackberry Lane,Sarasota,Indiana
Anton,12200 Broken Arrow,East Moriches,New Hampshire
Kyra,10041 Bedford Drive,Northwest Rockwall,Hawaii
Ephraim,751 Yvonne Richardson,Kennedy,Hawaii
Ainsley,15279 King Palm,Iva,Utah
Alton,4996 English Lane,Miranda,Pennsylvania
Dolphus,1412 Rising Sun,Socorro,Indiana
Billie,14143 Jackson Terrace,Fond du Lac,New Jersey
Dock,5385 Stegman Street,Mount Carmel,Minnesota
Adalyn,237 Greensview Drive,Eidson Road,Mississippi
Flem,3087 S Belmont Avenue,Cuero,Wisconsin
Kaelyn,15379 Old Zion Road,Hoosick,Vermont
Denis,9487 Field Place,Jackson,Utah
Pierce,8084 Prancer Road,Rising Star,Oklahoma
Shania,13840 Williams Avenue,Los Alamitos,Hawaii
Heidy,13321 Spofford Avenue,Stephentown,Texas
Lillie,5571 Perrine Avenue,Granville,North Dakota
Maryam,2186 Tudor Street,King City,Montana
Heidi,8984 Lily Road,Hempstead,Washington
Anastasia,248 Bonfire Hill,Doyle,Ohio
Ernst,13269 Rony Road,Bear Valley Springs,Georgia
Gregory,4020 David Carrasco,Alba,Washington
Abraham,12040 Red Fox,Spackenkill,Texas
Lindsay,103 Saint Clare,San Jacinto,Connecticut
Lemuel,4806 Beach Avenue,San Dimas,Mississippi
Mitchel,13567 Jerusalem Road,East Norwich,Virginia
Donald,12331 Academy Road,O'Donnell,Tennessee
Joyce,5527 Sunset Avenue,The Woodlands,Rhode Island
Micheal,5342 Aquifer,Aiken,North Dakota
Russel,11806 Forest Drive,Rose City,Iowa
Bishop,3399 Valor,San Lucas,Alaska
Matt,12994 Hamilton Street,Rosharon,Alaska
Paris,10225 N Newton Avenue,Cross Keys,Mississippi
Tara,10604 N Fleet Street,Lansing,Alaska
Wilson,5342 Aquifer,Coldspring,North Dakota
Cyrus,3816 S Kentucky Avenue,Damon,Alaska
Fatima,13860 Ogden Street,Westford,Washington
Okey,2270 S Pennsylvania Avenue,Colma,Hawaii
Regan,9838 Woodlawn Avenue,River Pines,Pennsylvania
Worth,15219 Lincoln Terrace,East Contra Costa,California
Math,7163 Albany Terrace,Buena Park,Wyoming
Jaden,2332 Oak Place,Cudahy,New York
Vanessa,6248 Richmond Place,Riesel,Alaska
Gemma,9529 Apollo Street,Meadow,New Hampshire
Author,4481 Maddaket,Federal Way,Ohio
Mervin,7231 Senger Place,Royal Palm Beach,Alaska
Walton,5839 Delmar Road,East Nassau,Nevada
Giuliana,8021 Bevis Mill Road,Marina del Rey,New Mexico
Jailyn,2651 Bayview Avenue,McColl,Connecticut
York,14249 Michael Smith,Lumberland,New York
Selah,15060 Ridgeway Street,Kenefick,New Hampshire
Jacob,12654 Warbonnet,Adams,Connecticut
Tilman,1819 Swan Drive,Granite Shoals,North Carolina
Homer,10647 Leland Place,West Livingston,Delaware
Marquis,15412 Monticello Street,Indianapolis,Florida
Lillian,2097 Turner Place,Stanford,Arizona
Primus,10516 Winnepeg Avenue,Nebo Center,Texas
Justus,11439 Pollock Avenue,Lomita,South Carolina
Brittany,8562 Cary Court,Call,Arkansas
Birt,1801 Corbin Street,Nanuet,Arizona
Stella,8466 Van Nest Place,Parkway-South Sacramento,Delaware
Adriana,15372 Brian Allin,Orchard,Massachusetts
Alanna,11981 Kilsyth Road,East Islip,Utah
Pearlie,14575 Depalm Island,China Grove,New Jersey
Yaritza,4532 Walter Avenue,Smith Corner,Kansas
Maura,14326 Nicole Court,Grizzly Flats,Wyoming
Thaddeus,10983 Braun Terrace,Olean,Delaware
Kaliyah,13928 Wilshire Run,Brandon,Minnesota
Keely,1867 Clifton Terrace,Springville,Illinois
Halsey,407 Oakview Drive W,Mustang Ridge,Georgia
Jerome,8028 Melrose Pkwy,Bethpage,Arkansas
Emry,8735 Stagg Street,Huntington Bay,Maryland
Zoe,8131 Eagle Drive,Fabius,Washington
Ruben,9217 City Place,Montgomery,Nevada
Ted,1986 US Highway 1,Menifee,Ohio
Lawrence,11307 Horseshoe Court,Brisbane,Nevada
Isabella,7163 Albany Terrace,Georgetown,South Dakota
Malachi,828 Fern Terrace,Delano,Wyoming
Authur,5132 Burkley Place,Humboldt Hill,Arkansas
Raina,4054 Sutton Place,Brookhaven,Idaho
Paula,12837 Bernard Terrace,University of California Davis,Hawaii
Jule,13762 Congress Street,Riverbank,New Mexico
Callie,1300 Vauxhall Road,Irvington,Wyoming
Aurora,11357 Exeter Way,Shawangunk,Oklahoma
Ariana,989 Great Spirit,Rosebud,Mississippi
Maddison,2797 War Feather,Jonesboro,Nevada
Yaretzi,14956 Seabreeze Avenue,Chittenango,Maine
Hayleigh,2752 Rhonda Court,Oak Ridge,Oregon
Maribel,1500 Cross Avenue,Ridge,New Mexico
Cornelious,10749 Treasure Hill,Kingsbury,Ohio
Olaf,10750 Caspian Avenue,Arlington Heights,Idaho
Viviana,5776 William Street,Wilmer,Iowa
Cloyd,10904 Saint Thomas Drive,Anderson Mill,Massachusetts
Stonewall,6684 Oriental Place,Bangor,Utah
Benjiman,7625 Martin Street,Bonney,Indiana
Annette,14252 Andrew Street S,Moriches,North Dakota
Maggie,188 Yvonne Diane,Brownsville,Illinois
Rollo,9302 William Payne,Nacogdoches,Iowa
Ethel,10806 Dan Sikes,Lake San Marcos,Vermont
Hadassah,1030 3rd Avenue,Ridgecrest,Hawaii
Rolla,2664 Juliat Place,Watertown,Vermont
Camryn,9121 Police Plaza,Milam,North Carolina
Abigale,2834 Thelma Drive,Coronado,Louisiana
Lawyer,15202 Montgomery Street,Piedmont,South Dakota
Harvie,7678 Sextant Drive,Early,Delaware
Alessandra,3619 Folklore,Jonesville,Kentucky
Phoebe,12843 Castle Gate,Berne,Arizona
Timothy,11930 Franklin Street,Golden Grove,Michigan
Simeon,1157 Heritage Lane,Lima,Minnesota
Lila,8371 Dayton Avenue,Escalon,Utah
Christ,6114 Kingdom,Gloversville,Arizona
Squire,981 Schaeffer Lane,DISH,California
Lon,13692 Hazard Place,Reid Hope King,Alaska
Woodson,9724 Fox Place,Sonoma,Georgia
Garry,6140 Bentwood Road,Descanso,Kansas
Shayna,8916 Cassatt,Rembert,Arizona
Lou,10399 Rte 506,Mesa,Maryland
Loy,174 Shackamaxon Drive,Pottersville,Illinois
Lily,2692 Riverview Road,Woodbridge,Maryland
Sarahi,1505 Olcott Square,Tomales,Wisconsin
Alpheus,1799 Leopold Terrace,La Porte,California
Gregg,1570 Marine Terrace,Doyle,North Dakota
Everette,4895 Bessemer,Shiloh,Rhode Island
Brooklyn,3931 South Avenue,Cohasset,New Hampshire
Gee,7783 Schooner,Owl Ranch-Amargosa,New Jersey
Sandra,13014 Floyd Terrace,Fort Wayne,West Virginia
Geo,415 S Myrtle Street,Scranton,Missouri
Nathaly,14819 Clarkson Avenue,Plum Grove,Wyoming
Denisse,5523 Harrison Avenue,Racine,New Hampshire
Flora,10492 Cezanne,De Kalb,Oregon
Veronica,2010 Paterson Avenue,East Avon,New Mexico
Wellington,8893 Castle Pine Drive,Dinuba,California
Bethany,10992 Peach Tree Lane,Wilmer,North Dakota
Emilee,7341 Hamilton Terrace,Ocotillo,Nebraska
Jason,13376 Eric Payne,West Menlo Park,Maine
Ennis,14586 Arlington Court,Arlington Heights,Hawaii
Haylee,6094 Boulderwood Drive,Arrowhead,Indiana
Ana,7416 Jeffrey Lane,Aurora,Pennsylvania
Jillian,1986 US Highway 1,Shakopee,Alabama
Ann,12278 Michal Lane,Montour Falls,Virginia
Diya,3320 W Jersey Street,Squirrel Mountain Valley,Indiana
Irven,5792 Oberlin Avenue,Ocotillo,New York
General,9121 Police Plaza,Groveton,Alabama
Hayley,8674 Williamson Street,Vacaville,North Dakota
Yoselin,9370 N 3rd Street,Clarence Center,Wyoming
Rudolph,6889 Cliff Street,Potosi,Iowa
Esau,14288 Warner Avenue,Plains,Louisiana
Brynlee,8225 Beach Avenue,Redwood Valley,Oregon
Aubrie,4799 Christopher Columbus Drive,Bentonville,New Hampshire
Lowell,2743 Billie Marie,Prairie Hill,Washington
Hunter,8624 Dean Refram,Mount Pleasant,Nevada
Amiyah,12966 Erico Avenue,Lansing,Indiana
Raoul,884 Voorhees Street,Wake Forest,Michigan
Marcus,14638 Morris Pesin Drive,Greenfield,Ohio
Alma,10736 Beverly Road,Norwood,Connecticut
Violet,827 Soverrign Court,Pico Rivera,Pennsylvania
Grover,1217 Lake Ontario,St. Helena,West Virginia
Manuel,10376 Old Wood Road,Abernathy,Connecticut
Danna,15216 Edgar Degas,Woodland,Oregon
Mitchell,10616 Pueblo Seguro,Silver Springs,Texas
Gloria,251 Glen Aire Drive,Rolling Hills Estates,North Carolina
Kristen,14360 Burnham Court,Naples,South Carolina
Houston,8406 Clinton Avenue,Belmont,Oklahoma
Brylee,8977 Traveller Way,Ware Place,Virginia
Evelyn,13044 Fairview Avenue,Caspar,Pennsylvania
Julie,4354 Pueblo Seguro,Thornton,South Carolina
Pierre,1165 Evergreen Avenue,Garfield,Oregon
Julia,13872 Preview,New Ellenton,Arkansas
Lonzo,2479 Swaps,Spokane,Rhode Island
Priscilla,15035 Jacksonville Court,Yorkshire,Alaska
Janiya,297 Seib Avenue,Compton,Vermont
Jordyn,9533 Rosemont Place,Fort Worth,Virginia
Uriah,11686 Stuyvesant Avenue,Flanders,North Dakota
Hayden,5064 Parkwood Drive,Fieldbrook,Nebraska
Tyra,3068 W Jersey Street,Blue Springs,Maryland
Noemi,5776 William Street,Butternuts,Nebraska
Nicholas,13427 Trawood,Orland,Connecticut
Porter,14899 Apple Tree Lane,Yosemite,Kentucky
Milford,3212 King Street,Alturas,Vermont
Fay,8810 Hobart Street,Shrub Oak,Minnesota
Camila,12077 Esher Way,Highlands,Nevada
Victoria,15371 Fox Hill Lane,Muscoy,North Dakota
Darius,10200 Skipper,Russian River-Coastal,Maryland
Dorsey,10519 Edgar Road,Woburn,Iowa
Harmon,11436 Villanova Court,Murrieta Hot Springs,Kansas
Coley,6702 Wooding Terrace,Fair Play,Minnesota
Clemente,3393 David Carrasco,Follett,Wisconsin
Reginald,10177 Rock Wall,Essex,West Virginia
Baylee,5571 Perrine Avenue,Rohnert Park,Arizona
Nelson,13922 Emerson Lane,Iron Horse,Maine
Gabe,13672 Whitman Avenue,Palatine,Georgia
Kailyn,8552 Rufus Brijalba,Pompano Beach,West Virginia
Kendra,6615 Muriel Pkwy,Malone,South Carolina
Carrie,840 Thrasher Avenue,Campbell,Utah
Shaniya,8840 Gales Court,Chualar,Arkansas
Cayla,1834 Rain Dance,Bristol,New Jersey
Creed,11284 US Highway 322,Fairview,West Virginia
Penelope,1857 S Illinois Avenue,Toro Canyon,Ohio
Scarlet,9217 City Place,Olathe,New Jersey
Jasper,8728 W Jersey Street,Russian River-Coastal,Texas
Maria,10309 Keener Avenue,Schuylerville,Texas
Naomi,294 Beryllium Road,Buffalo,Arizona
Aurthur,5652 Heggen Avenue,Sloatsburg,Rhode Island
Kailee,8735 Stagg Street,Three Rivers,New Jersey
Mason,11288 Cricket Drive,North Edwards,Texas
Jonathan,8624 Dean Refram,Carlisle,Idaho
Eugene,14881 Briarcliff Drive,Kettering,North Dakota
Mike,2995 N Chelsea Avenue,Cleveland,Virginia
Madalyn,14999 del Mar Court,Camden,Oregon
Newell,5071 Oakwood Terrace,Lumberton,New Mexico
Kayla,3617 Menard,Porter Springs,Arizona
Montana,10556 Ocean Side,New Orleans,Maine
Connie,11545 Bellows,Hounsfield,Georgia
Clarance,12881 Lake Huron,Grand Island,South Carolina
Bryant,4414 Beachcomber,Owl Ranch-Amargosa,Oklahoma
Karis,9066 Lighthouse Court,Manlius,South Carolina
Solon,9962 Edgewood Road,Goshen,Maryland
Eden,6869 Hutton Street,Washington,Florida
Jewel,9436 N Mount Vernon Avenue,Valley Cottage,North Dakota
Yasmin,14230 Fox Hill Lane,Matagorda-Sargent,Texas
Leila,13014 Floyd Terrace,Gerry,Kansas
Cary,3423 West Street,Laguna,Texas
Maud,2840 S Long Avenue,Euclid,Connecticut
Stanley,9782 Tower View,Marion,California
Kendall,10072 Denton Street,Irondequoit,Oklahoma
Johnny,4065 Mary Street,San Lorenzo Valley,Utah
Meagan,7868 Red Sails,Old Westbury,Missouri
Bessie,14730 Lincoln Street,Houghton,Iowa
Angelica,2437 Orchard Meadows Drive,Alturas,Virginia
Pedro,14783 Aurora Drive,Rosebud,Colorado
Wallace,677 Hickory Street,San Bruno,Idaho
Juan,13842 McLean Place,Killeen,Oklahoma
Reyna,3294 Serendipity,Commerce City,Virginia
Tabitha,8470 John F Kennedy Boulevard,Josephine,Kansas
Sasha,7422 Beach Street,Kosse,South Dakota
Ivory,9337 Billy Casper,Hyampom,Utah
Alexa,8481 Frederick Terrace,Big Lake,Virginia
Dayton,11860 Debra Way,Seminole,North Dakota
Karsyn,10565 Otter Lane,New Waverly,Pennsylvania
Isom,8889 S Maine Avenue,Lake Secession,Mississippi
Amy,10072 Denton Street,Clinton,Georgia
Lydia,8159 River Drive,South San Jose Hills,South Dakota
Daphne,10629 Hillside Avenue,San Gorgonio Pass,New Mexico
Iyanna,6850 Floral Avenue,Plumas Eureka,Texas
Bradford,575 New Gretna Avenue,Stratford,Massachusetts
Chelsey,53 Wong,San Mateo,Nevada
Waldo,13137 Clifton Terrace,Chester,Florida
Harlan,4549 Wine Street,Mount Kisco,Michigan
Cassidy,15058 Winchester Drive,Oakway,New Mexico
Brielle,8667 Desert Rain,El Granada,California
Chelsea,10523 S Berkley Square,McCloud,Utah
Dee,458 Mount Airy Road,Burney,New Mexico
Madalynn,8522 Silver Gate,Yosemite Lakes,Maryland
Cara,3306 Rockport Drive,Dimmitt,Oklahoma
Jenny,3722 Snow Hawk,Rancho Tehama Reserve,Georgia
Diana,9667 Rocio,Ardsley,North Dakota
Kaylyn,14360 Burnham Court,Slater,New York
Elianna,1290 Oxford Avenue,Daingerfield,Nebraska
Kristina,11969 Paseo De Oro,Nunda,North Carolina
Orin,8571 Warrena Road,Wheatley Heights,Wyoming
Erika,4300 Trotter Road,Rockland,Pennsylvania
Ivy,15494 Condit Place,Shawnee,Colorado
Jesse,3671 Berkeley Place,Turkey,Maryland
Emmalee,7244 Tenaha,Kerrville,North Dakota
Lilianna,2728 Wesley Avenue,Simpsonville,Idaho
Braelyn,7868 Red Sails,Lake Jackson,North Carolina
Georgia,2435 Bogart,Glen Ellen,Kentucky
Darwin,9380 Colden Street,Medina,Michigan
Ally,10052 Oriental Place,Orange,Michigan
Madelyn,4806 Beach Avenue,Meredith,Kentucky
Fate,12921 Leopold Terrace,Coconut Creek,Wyoming
Lexie,12803 Carson Avenue,Falcon Lake Estates,Wisconsin
Kayli,13284 Mary Street,Lorena,Arkansas
Elsa,15225 Ritz,San Joaquin Hills,Nebraska
Wells,3399 Valor,Big Lake,North Dakota
Marin,8938 Maxwell Street,Martindale,New York
Giles,12625 Butternut Street,Lorraine,Missouri
Gorge,12138 Fillmore Street,Seco Mines,Hawaii
Knox,237 Greensview Drive,Spring Valley,North Dakota
Marie,4386 N Gate Road,Pasadena,Pennsylvania
Larissa,1519 Crystal Terrace,Gilroy,West Virginia
Milton,3061 Devonshire Drive,San Diego,Florida
Hanna,5543 Sara Danielle,Moody,Montana
Michaela,14252 Andrew Street S,Hereford,Oregon
Clem,4414 Beachcomber,Calverton,California
April,7472 Saint Crispin,India Hook,Kentucky
Morgan,4410 Ralph Janes,Pulaski,Alabama
Weaver,7337 Tower Mountain Drive,Floresville,Nebraska
Page,14971 Sagemore Court,Cuba,Michigan
Melville,2204 Larch Street,Glen,Massachusetts
Stewart,14981 Pinehurst Court,Mattydale,New York
Jaeda,3661 Cook Street,New Haven,Indiana
Adison,9060 Shearwater Ct W,Lenox,Iowa
Roswell,1316 Furlong Circle,Fresno,Alabama
Cierra,14783 Aurora Drive,Winter Gardens,Nevada
Benito,12094 Patrician Terrace,Cortlandt,Missouri
Noelle,8930 Overlook Way,Shady Shores,New York
Adelyn,13399 Woolley Avenue,Los Molinos,Rhode Island
Elwood,13526 Riddle Avenue,Worth,Oklahoma
Trista,13609 Dos Deannas,Holtsville,Minnesota
